{
"type": "FeatureCollection",
"name": "SiteTourist1",
"crs": { "type": "name", "properties": { "name": "urn:ogc:def:crs:OGC:1.3:CRS84" } },
"features": [
{ "type": "Feature", "properties": { "OBJECTID": 1, "Name": "Qasr bani targha", "phone": null, "tourism": "attraction", "website": null, "TYPE": "Cultural Tourism" }, "geometry": { "type": "Point", "coordinates": [ -6.837219240375589, 34.031150981932342, 0.0 ] } },
{ "type": "Feature", "properties": { "OBJECTID": 2, "Name": "bab oudaya", "phone": null, "tourism": "attraction", "website": null, "TYPE": "Cultural Tourism" }, "geometry": { "type": "Point", "coordinates": [ -6.836576576747575, 34.030929766695408, 0.0 ] } },
{ "type": "Feature", "properties": { "OBJECTID": 3, "Name": "Mussée des Oudayas", "phone": null, "tourism": "museum", "website": null, "TYPE": "Cultural Tourism" }, "geometry": { "type": "Point", "coordinates": [ -6.835722085006182, 34.030496206235, 0.0 ] } },
{ "type": "Feature", "properties": { "OBJECTID": 4, "Name": "jardin andalous", "phone": null, "tourism": "camp_site", "website": null, "TYPE": "Cultural Tourism" }, "geometry": { "type": "Point", "coordinates": [ -6.835422506443479, 34.03018997089049, 0.0 ] } },
{ "type": "Feature", "properties": { "OBJECTID": 5, "Name": "Rabat Corniche - Attraction touristique", "phone": null, "tourism": "attraction", "website": null, "TYPE": "Cultural Tourism" }, "geometry": { "type": "Point", "coordinates": [ -6.832058403472502, 34.028438293892179, 0.0 ] } },
{ "type": "Feature", "properties": { "OBJECTID": 6, "Name": "Jet sky Rayni Alami", "phone": null, "tourism": "camp_site", "website": null, "TYPE": "Cultural Tourism" }, "geometry": { "type": "Point", "coordinates": [ -6.822727291531237, 34.02642763462768, 0.0 ] } },
{ "type": "Feature", "properties": { "OBJECTID": 7, "Name": "Jardin\nBAB MRISSA", "phone": null, "tourism": "camp_site", "website": null, "TYPE": "Cultural Tourism" }, "geometry": { "type": "Point", "coordinates": [ -6.817846217528881, 34.030083058586342, 0.0 ] } },
{ "type": "Feature", "properties": { "OBJECTID": 8, "Name": "Tour Mohammed VI", "phone": null, "tourism": "attraction", "website": null, "TYPE": "Cultural Tourism" }, "geometry": { "type": "Point", "coordinates": [ -6.804907679345888, 34.01887031041656, 0.0 ] } },
{ "type": "Feature", "properties": { "OBJECTID": 9, "Name": "bab lamrisa", "phone": null, "tourism": "attraction", "website": null, "TYPE": "Cultural Tourism" }, "geometry": { "type": "Point", "coordinates": [ -6.820294928468115, 34.033075077852629, 0.0 ] } },
{ "type": "Feature", "properties": { "OBJECTID": 10, "Name": "Gare de Salé Ville", "phone": null, "tourism": "gare", "website": null, "TYPE": "gare" }, "geometry": { "type": "Point", "coordinates": [ -6.815472321190612, 34.038452035333194, 0.0 ] } },
{ "type": "Feature", "properties": { "OBJECTID": 11, "Name": "Aéroport de Rabat-Salé", "phone": null, "tourism": "Aéroport", "website": null, "TYPE": "Aéroport" }, "geometry": { "type": "Point", "coordinates": [ -6.754747224205005, 34.045881173777218, 0.0 ] } },
{ "type": "Feature", "properties": { "OBJECTID": 12, "Name": "Gare de Salé-Tabriquet", "phone": null, "tourism": "gare", "website": null, "TYPE": "gare" }, "geometry": { "type": "Point", "coordinates": [ -6.806029180702069, 34.051780538441164, 0.0 ] } },
{ "type": "Feature", "properties": { "OBJECTID": 13, "Name": "Royal Mansour (en construction) - Hôtel", "phone": null, "tourism": "hotel", "website": null, "TYPE": "hotels" }, "geometry": { "type": "Point", "coordinates": [ -6.80952897698063, 34.02163769522349, 0.0 ] } },
{ "type": "Feature", "properties": { "OBJECTID": 14, "Name": "Théâtre Royal", "phone": null, "tourism": "museum", "website": null, "TYPE": "Cultural Tourism" }, "geometry": { "type": "Point", "coordinates": [ -6.815018251690901, 34.025736544306142, 0.0 ] } },
{ "type": "Feature", "properties": { "OBJECTID": 15, "Name": "Site Archéologique de Chellah", "phone": null, "tourism": "museum", "website": null, "TYPE": "Cultural Tourism" }, "geometry": { "type": "Point", "coordinates": [ -6.820964732736172, 34.007241081710617, 0.0 ] } },
{ "type": "Feature", "properties": { "OBJECTID": 16, "Name": "Jardin Nouzhat Hassan", "phone": null, "tourism": "camp_site", "website": null, "TYPE": "Cultural Tourism" }, "geometry": { "type": "Point", "coordinates": [ -6.833691670334247, 34.021973532652453, 0.0 ] } },
{ "type": "Feature", "properties": { "OBJECTID": 17, "Name": "Théâtre National Mohammed V", "phone": null, "tourism": "museum", "website": null, "TYPE": "Cultural Tourism" }, "geometry": { "type": "Point", "coordinates": [ -6.833292466673925, 34.020384615857381, 0.0 ] } },
{ "type": "Feature", "properties": { "OBJECTID": 18, "Name": "Place Elbarid - Attraction touristiqu", "phone": null, "tourism": "attraction", "website": null, "TYPE": "Cultural Tourism" }, "geometry": { "type": "Point", "coordinates": [ -6.836408795629382, 34.018863483662869, 0.0 ] } },
{ "type": "Feature", "properties": { "OBJECTID": 19, "Name": "Jardin Mohammed V", "phone": null, "tourism": "camp_site", "website": null, "TYPE": "Cultural Tourism" }, "geometry": { "type": "Point", "coordinates": [ -6.836247191054952, 34.020011404402851, 0.0 ] } },
{ "type": "Feature", "properties": { "OBJECTID": 20, "Name": "Gare Rabat Ville", "phone": null, "tourism": "gare", "website": null, "TYPE": "gare" }, "geometry": { "type": "Point", "coordinates": [ -6.835628462883221, 34.016392752823322, 0.0 ] } },
{ "type": "Feature", "properties": { "OBJECTID": 21, "Name": "Parc Hassan II", "phone": null, "tourism": "camp_site", "website": null, "TYPE": "Cultural Tourism" }, "geometry": { "type": "Point", "coordinates": [ -6.832012276345438, 34.000244905677903, 0.0 ] } },
{ "type": "Feature", "properties": { "OBJECTID": 22, "Name": "Stade Al Barid", "phone": null, "tourism": "stade", "website": null, "TYPE": "Sport" }, "geometry": { "type": "Point", "coordinates": [ -6.845076785265405, 34.005257147599309, 0.0 ] } },
{ "type": "Feature", "properties": { "OBJECTID": 23, "Name": "Jardin\nJardin d'Essais Botanique", "phone": null, "tourism": "camp_site", "website": null, "TYPE": "Cultural Tourism" }, "geometry": { "type": "Point", "coordinates": [ -6.8496880419695, 34.010552220009004, 0.0 ] } },
{ "type": "Feature", "properties": { "OBJECTID": 24, "Name": "Stade Prince Moulay EL Hassan", "phone": null, "tourism": "stade", "website": null, "TYPE": "Sport" }, "geometry": { "type": "Point", "coordinates": [ -6.823835264385878, 33.975805868645978, 0.0 ] } },
{ "type": "Feature", "properties": { "OBJECTID": 25, "Name": "Foret Urbain ibn Sina", "phone": null, "tourism": "camp_site", "website": null, "TYPE": "Cultural Tourism" }, "geometry": { "type": "Point", "coordinates": [ -6.843434155561795, 33.985870800397151, 0.0 ] } },
{ "type": "Feature", "properties": { "OBJECTID": 26, "Name": "Gare Rabat Agdal", "phone": null, "tourism": "gare", "website": null, "TYPE": "gare" }, "geometry": { "type": "Point", "coordinates": [ -6.856918296242327, 34.000618611759592, 0.0 ] } },
{ "type": "Feature", "properties": { "OBJECTID": 27, "Name": "Gare routière Rabat", "phone": null, "tourism": "gare", "website": null, "TYPE": "gare" }, "geometry": { "type": "Point", "coordinates": [ -6.882091026279795, 33.96809114958694, 0.0 ] } },
{ "type": "Feature", "properties": { "OBJECTID": 28, "Name": "Prince Moulay Abdellah Stadium", "phone": null, "tourism": "stade", "website": null, "TYPE": "Sport" }, "geometry": { "type": "Point", "coordinates": [ -6.888931234688698, 33.95978709130128, 0.0 ] } },
{ "type": "Feature", "properties": { "OBJECTID": 29, "Name": "Stade Olympique", "phone": null, "tourism": "stade", "website": null, "TYPE": "Sport" }, "geometry": { "type": "Point", "coordinates": [ -6.89098030939374, 33.956995790823157, 0.0 ] } },
{ "type": "Feature", "properties": { "OBJECTID": 30, "Name": "Jardin Zoologique de Rabat", "phone": null, "tourism": "Zoo", "website": null, "TYPE": "EcoTourism" }, "geometry": { "type": "Point", "coordinates": [ -6.894823074725082, 33.952554647179284, 0.0 ] } },
{ "type": "Feature", "properties": { "OBJECTID": 31, "Name": "Royal Golf Dar Essalam", "phone": null, "tourism": "hotel", "website": null, "TYPE": "hotels" }, "geometry": { "type": "Point", "coordinates": [ -6.833222510210646, 33.915739461207238, 0.0 ] } },
{ "type": "Feature", "properties": { "OBJECTID": 32, "Name": "The View Rabat - Hôtel", "phone": "05290-80102", "tourism": "hotel", "website": "theviewhotels.com", "TYPE": "hotels" }, "geometry": { "type": "Point", "coordinates": [ -6.866928084263634, 33.95507433890964, 0.0 ] } },
{ "type": "Feature", "properties": { "OBJECTID": 33, "Name": "ibis Agdal - Hôtel", "phone": "05371-31700", "tourism": "hotel", "website": null, "TYPE": "hotels" }, "geometry": { "type": "Point", "coordinates": [ -6.858745862531464, 33.998629324883495, 0.0 ] } },
{ "type": "Feature", "properties": { "OBJECTID": 34, "Name": "NJ Hotel Rabat - Hôtel", "phone": "05372-03432", "tourism": "hotel", "website": "njhotel.ma", "TYPE": "hotels" }, "geometry": { "type": "Point", "coordinates": [ -6.836843178969502, 34.013636871244671, 0.0 ] } },
{ "type": "Feature", "properties": { "OBJECTID": 35, "Name": "Belere Urban Hotel Rabat - Hôtel", "phone": "05372-03302", "tourism": "hotel", "website": "belere-hotels.com", "TYPE": "hotels" }, "geometry": { "type": "Point", "coordinates": [ -6.836329905300829, 34.01445498001334, 0.0 ] } },
{ "type": "Feature", "properties": { "OBJECTID": 36, "Name": "Hotel Sid El-Aidi Medina", "phone": "0643-696693", "tourism": "hotel", "website": null, "TYPE": "hotels" }, "geometry": { "type": "Point", "coordinates": [ -6.837200318639759, 34.023237493815316, 0.0 ] } },
{ "type": "Feature", "properties": { "OBJECTID": 37, "Name": "Dar el idrissi - Hôtel", "phone": "0678-083356", "tourism": "hotel", "website": null, "TYPE": "hotels" }, "geometry": { "type": "Point", "coordinates": [ -6.836696407812951, 34.024033729273242, 0.0 ] } },
{ "type": "Feature", "properties": { "OBJECTID": 38, "Name": "Hôtel Lutece - Hôtel", "phone": "05377-26263", "tourism": "hotel", "website": "hotellutecerabat.com", "TYPE": "hotels" }, "geometry": { "type": "Point", "coordinates": [ -6.843130918556994, 34.02554316668386, 0.0 ] } },
{ "type": "Feature", "properties": { "OBJECTID": 39, "Name": "Sofitel Rabat Jardin des Roses", "phone": "05376-75656", "tourism": "hotel", "website": "sofitel.accor.com", "TYPE": "hotels" }, "geometry": { "type": "Point", "coordinates": [ -6.837218591065096, 33.99031217786478, 0.0 ] } },
{ "type": "Feature", "properties": { "OBJECTID": 40, "Name": "Fairmont La Marina - Hôtel", "phone": "05378-20800", "tourism": "hotel", "website": "fairmont.com", "TYPE": "hotels" }, "geometry": { "type": "Point", "coordinates": [ -6.828991815120105, 34.032680822262193, 0.0 ] } },
{ "type": "Feature", "properties": { "OBJECTID": 41, "Name": "Makass Appart Hotel", "phone": "05375-76175", "tourism": "hotel", "website": "makassapparthotel.com", "TYPE": "hotels" }, "geometry": { "type": "Point", "coordinates": [ -6.875852181033281, 33.953115323213638, 0.0 ] } },
{ "type": "Feature", "properties": { "OBJECTID": 42, "Name": "Onomo Hotel Rabat Terminus", "phone": "05372-12900", "tourism": "hotel", "website": "onomohotel.com", "TYPE": "hotels" }, "geometry": { "type": "Point", "coordinates": [ -6.835167856211569, 34.015708241941866, 0.0 ] } },
{ "type": "Feature", "properties": { "OBJECTID": 43, "Name": "Dawliz Art & Spa - Hôtel", "phone": "05378-83277", "tourism": "hotel", "website": "dhotelrabat.com", "TYPE": "hotels" }, "geometry": { "type": "Point", "coordinates": [ -6.815550134131342, 34.028577944216806, 0.0 ] } },
{ "type": "Feature", "properties": { "OBJECTID": 44, "Name": "THE WHITE PALACE RABAT - Hôtel", "phone": "0620-100600", "tourism": "hotel", "website": "whitepalacerabat.com", "TYPE": "hotels" }, "geometry": { "type": "Point", "coordinates": [ -6.8631333337363, 33.973486098005083, 0.0 ] } },
{ "type": "Feature", "properties": { "OBJECTID": 45, "Name": "AZ Hotel des Arts", "phone": "05376-61717", "tourism": "hotel", "website": "hotellemusee.com", "TYPE": "hotels" }, "geometry": { "type": "Point", "coordinates": [ -6.833473549664518, 34.015537925634817, 0.0 ] } },
{ "type": "Feature", "properties": { "OBJECTID": 46, "Name": "Hôtel Le Musée", "phone": "05377-07050", "tourism": "hotel", "website": null, "TYPE": "hotels" }, "geometry": { "type": "Point", "coordinates": [ -6.832351968268654, 34.015739745193116, 0.0 ] } },
{ "type": "Feature", "properties": { "OBJECTID": 47, "Name": "Hotel Meuble Parisien", "phone": "05377-06424", "tourism": "hotel", "website": null, "TYPE": "hotels" }, "geometry": { "type": "Point", "coordinates": [ -6.831931069363293, 34.016154924410273, 0.0 ] } },
{ "type": "Feature", "properties": { "OBJECTID": 48, "Name": "Hotel Paris", "phone": "05377-23868", "tourism": "hotel", "website": null, "TYPE": "hotels" }, "geometry": { "type": "Point", "coordinates": [ -6.841376722557641, 34.020813710284528, 0.0 ] } },
{ "type": "Feature", "properties": { "OBJECTID": 49, "Name": "Hôtel de la Paix", "phone": "05377-32031", "tourism": "hotel", "website": null, "TYPE": "hotels" }, "geometry": { "type": "Point", "coordinates": [ -6.836559240516465, 34.021015970510689, 0.0 ] } },
{ "type": "Feature", "properties": { "OBJECTID": 50, "Name": "hotel du centre", "phone": null, "tourism": "hotel", "website": null, "TYPE": "hotels" }, "geometry": { "type": "Point", "coordinates": [ -6.838083718189012, 34.022640925838118, 0.0 ] } },
{ "type": "Feature", "properties": { "OBJECTID": 51, "Name": "Hotel Dar Rehab", "phone": "0697-591659", "tourism": "hotel", "website": null, "TYPE": "hotels" }, "geometry": { "type": "Point", "coordinates": [ -6.838341195889427, 34.023622821835829, 0.0 ] } },
{ "type": "Feature", "properties": { "OBJECTID": 52, "Name": "Hotel Al Kasbah", "phone": "05377-68537", "tourism": "hotel", "website": null, "TYPE": "hotels" }, "geometry": { "type": "Point", "coordinates": [ -6.837893489992496, 34.023792630025923, 0.0 ] } },
{ "type": "Feature", "properties": { "OBJECTID": 53, "Name": "Hôtel sabona", "phone": null, "tourism": "hotel", "website": null, "TYPE": "hotels" }, "geometry": { "type": "Point", "coordinates": [ -6.837698367685448, 34.023852566242965, 0.0 ] } },
{ "type": "Feature", "properties": { "OBJECTID": 54, "Name": "Riad Sidi Fatah", "phone": "0637-330595", "tourism": "hotel", "website": "riad-sidifatah-rabat.com", "TYPE": "hotels" }, "geometry": { "type": "Point", "coordinates": [ -6.837516757692185, 34.024611281985131, 0.0 ] } },
{ "type": "Feature", "properties": { "OBJECTID": 55, "Name": "Hotel REGINA", "phone": null, "tourism": "hotel", "website": null, "TYPE": "hotels" }, "geometry": { "type": "Point", "coordinates": [ -6.838031830904242, 34.02416659241436, 0.0 ] } },
{ "type": "Feature", "properties": { "OBJECTID": 56, "Name": "Riad Majorelle", "phone": "0616-515151", "tourism": "hotel", "website": null, "TYPE": "hotels" }, "geometry": { "type": "Point", "coordinates": [ -6.838168428929805, 34.024105136342996, 0.0 ] } },
{ "type": "Feature", "properties": { "OBJECTID": 57, "Name": "Dar Bennis 2", "phone": "0661-592422", "tourism": "hotel", "website": null, "TYPE": "hotels" }, "geometry": { "type": "Point", "coordinates": [ -6.839676151333265, 34.023590258283832, 0.0 ] } },
{ "type": "Feature", "properties": { "OBJECTID": 58, "Name": "Riad Dar elmesk", "phone": "0657-804531", "tourism": "hotel", "website": null, "TYPE": "hotels" }, "geometry": { "type": "Point", "coordinates": [ -6.839679977948549, 34.02387737673962, 0.0 ] } },
{ "type": "Feature", "properties": { "OBJECTID": 59, "Name": "Riad Dar Soufa", "phone": "0673-194537", "tourism": "hotel", "website": null, "TYPE": "hotels" }, "geometry": { "type": "Point", "coordinates": [ -6.839599704462728, 34.024213447992281, 0.0 ] } },
{ "type": "Feature", "properties": { "OBJECTID": 60, "Name": "Riad Asswar", "phone": null, "tourism": "hotel", "website": "riadasswar.com", "TYPE": "hotels" }, "geometry": { "type": "Point", "coordinates": [ -6.839472687814236, 34.024277209925344, 0.0 ] } },
{ "type": "Feature", "properties": { "OBJECTID": 61, "Name": "Riad Amris", "phone": "0669-550599", "tourism": "hotel", "website": "riadamaris.com", "TYPE": "hotels" }, "geometry": { "type": "Point", "coordinates": [ -6.840172120247132, 34.025094051549274, 0.0 ] } },
{ "type": "Feature", "properties": { "OBJECTID": 62, "Name": "Riad Dar Saidi", "phone": "0694-796673", "tourism": "hotel", "website": "riaddarsaidi.com", "TYPE": "hotels" }, "geometry": { "type": "Point", "coordinates": [ -6.839326236816305, 34.024905782076246, 0.0 ] } },
{ "type": "Feature", "properties": { "OBJECTID": 63, "Name": "riad jbara 2", "phone": "0661-170036", "tourism": "hotel", "website": null, "TYPE": "hotels" }, "geometry": { "type": "Point", "coordinates": [ -6.83804739547088, 34.02500012095885, 0.0 ] } },
{ "type": "Feature", "properties": { "OBJECTID": 64, "Name": "Riad Lily", "phone": "0665-498332", "tourism": "hotel", "website": null, "TYPE": "hotels" }, "geometry": { "type": "Point", "coordinates": [ -6.83816138004363, 34.025205682596209, 0.0 ] } },
{ "type": "Feature", "properties": { "OBJECTID": 65, "Name": "Hotel La Renaissance", "phone": "0710-484685", "tourism": "hotel", "website": null, "TYPE": "hotels" }, "geometry": { "type": "Point", "coordinates": [ -6.838103038324505, 34.024836509097668, 0.0 ] } },
{ "type": "Feature", "properties": { "OBJECTID": 66, "Name": "Four Seasons Hôtel", "phone": "05380-51200", "tourism": "hotel", "website": "fourseasons.com", "TYPE": "hotels" }, "geometry": { "type": "Point", "coordinates": [ -6.853992018316944, 34.020907568029884, 0.0 ] } },
{ "type": "Feature", "properties": { "OBJECTID": 67, "Name": "Salle de Hockey sur Glace", "phone": null, "tourism": "hotel", "website": null, "TYPE": "hotels" }, "geometry": { "type": "Point", "coordinates": [ -6.865508486427473, 34.008359433640976, 0.0 ] } },
{ "type": "Feature", "properties": { "OBJECTID": 68, "Name": "Smarts Hôtel", "phone": "05376-88585", "tourism": "hotel", "website": null, "TYPE": "hotels" }, "geometry": { "type": "Point", "coordinates": [ -6.850220458607225, 34.003192145001549, 0.0 ] } },
{ "type": "Feature", "properties": { "OBJECTID": 69, "Name": "StayHere Agdal 3", "phone": "05379-11352", "tourism": "hotel", "website": "stayhere.ma", "TYPE": "hotels" }, "geometry": { "type": "Point", "coordinates": [ -6.849125007912733, 34.003279980886475, 0.0 ] } },
{ "type": "Feature", "properties": { "OBJECTID": 70, "Name": "First Suites Hôtel", "phone": "05377-76070", "tourism": "hotel", "website": "firstsuiteshotel.top", "TYPE": "hotels" }, "geometry": { "type": "Point", "coordinates": [ -6.84470559728544, 33.998950965614597, 0.0 ] } },
{ "type": "Feature", "properties": { "OBJECTID": 71, "Name": "Hotel Le M", "phone": "0661-359874", "tourism": "hotel", "website": "lemhotel.ma", "TYPE": "hotels" }, "geometry": { "type": "Point", "coordinates": [ -6.845716073737776, 33.996818792653187, 0.0 ] } },
{ "type": "Feature", "properties": { "OBJECTID": 72, "Name": "RENT-INN Boutique hotel", "phone": "05376-73810", "tourism": "hotel", "website": null, "TYPE": "hotels" }, "geometry": { "type": "Point", "coordinates": [ -6.847851101147342, 33.99458601972907, 0.0 ] } },
{ "type": "Feature", "properties": { "OBJECTID": 73, "Name": "Riad Zyo", "phone": "0661-110896", "tourism": "hotel", "website": "riad-zyo.com", "TYPE": "hotels" }, "geometry": { "type": "Point", "coordinates": [ -6.840411487400161, 34.026100362341879, 0.0 ] } },
{ "type": "Feature", "properties": { "OBJECTID": 74, "Name": "Riad Dar Rabiaa", "phone": "0661-111072", "tourism": "hotel", "website": null, "TYPE": "hotels" }, "geometry": { "type": "Point", "coordinates": [ -6.839551639296644, 34.025646827039509, 0.0 ] } },
{ "type": "Feature", "properties": { "OBJECTID": 75, "Name": "Riad Al Mazhar", "phone": "0661-558808", "tourism": "hotel", "website": "riadalmazhar.com", "TYPE": "hotels" }, "geometry": { "type": "Point", "coordinates": [ -6.839003871231625, 34.026032189234172, 0.0 ] } },
{ "type": "Feature", "properties": { "OBJECTID": 76, "Name": "Riad Oudaya", "phone": "05377-02392", "tourism": "hotel", "website": null, "TYPE": "hotels" }, "geometry": { "type": "Point", "coordinates": [ -6.839402962476697, 34.026123869720891, 0.0 ] } },
{ "type": "Feature", "properties": { "OBJECTID": 77, "Name": "Riad Dar Karima", "phone": "0661-226644", "tourism": "hotel", "website": "morocco-ma.website", "TYPE": "hotels" }, "geometry": { "type": "Point", "coordinates": [ -6.839813900491095, 34.026340941781086, 0.0 ] } },
{ "type": "Feature", "properties": { "OBJECTID": 78, "Name": "Hotel Darna, Rabat", "phone": "05377-34705", "tourism": "hotel", "website": null, "TYPE": "hotels" }, "geometry": { "type": "Point", "coordinates": [ -6.840958530611658, 34.026965958012624, 0.0 ] } },
{ "type": "Feature", "properties": { "OBJECTID": 79, "Name": "Riad Rabat l'Alcazar", "phone": "0661-152991", "tourism": "hotel", "website": "lalcazar.com", "TYPE": "hotels" }, "geometry": { "type": "Point", "coordinates": [ -6.840587714051708, 34.027321699237064, 0.0 ] } },
{ "type": "Feature", "properties": { "OBJECTID": 80, "Name": "Riad Marhaba", "phone": null, "tourism": "hotel", "website": "riadmarhaba.com", "TYPE": "hotels" }, "geometry": { "type": "Point", "coordinates": [ -6.836942741114569, 34.027330764403303, 0.0 ] } },
{ "type": "Feature", "properties": { "OBJECTID": 81, "Name": "Riad Kalaa", "phone": "0661-144899", "tourism": "hotel", "website": "rabatriads.com", "TYPE": "hotels" }, "geometry": { "type": "Point", "coordinates": [ -6.837477861114337, 34.027860777153194, 0.0 ] } },
{ "type": "Feature", "properties": { "OBJECTID": 82, "Name": "Euphoriad - Hôtel", "phone": "05377-34209", "tourism": "hotel", "website": "euphoriad.com", "TYPE": "hotels" }, "geometry": { "type": "Point", "coordinates": [ -6.838893384122343, 34.027486748214926, 0.0 ] } },
{ "type": "Feature", "properties": { "OBJECTID": 83, "Name": "Riad El Medina", "phone": null, "tourism": "hotel", "website": "riadelmedina.net", "TYPE": "hotels" }, "geometry": { "type": "Point", "coordinates": [ -6.835858005842226, 34.02795564753518, 0.0 ] } },
{ "type": "Feature", "properties": { "OBJECTID": 84, "Name": "Riad Dar Alia", "phone": "0661-221470", "tourism": "hotel", "website": "dar-alia.com", "TYPE": "hotels" }, "geometry": { "type": "Point", "coordinates": [ -6.835305707892076, 34.028295993265544, 0.0 ] } },
{ "type": "Feature", "properties": { "OBJECTID": 85, "Name": "Dar Zouhour", "phone": "0613-752585", "tourism": "hotel", "website": null, "TYPE": "hotels" }, "geometry": { "type": "Point", "coordinates": [ -6.83877753255706, 34.02767822556973, 0.0 ] } },
{ "type": "Feature", "properties": { "OBJECTID": 86, "Name": "Riad Dar Souika", "phone": "0661-081520", "tourism": "hotel", "website": null, "TYPE": "hotels" }, "geometry": { "type": "Point", "coordinates": [ -6.835095788140052, 34.024370320334071, 0.0 ] } },
{ "type": "Feature", "properties": { "OBJECTID": 87, "Name": "Riad Najiba", "phone": "0661-592422", "tourism": "hotel", "website": null, "TYPE": "hotels" }, "geometry": { "type": "Point", "coordinates": [ -6.835565506742682, 34.023989173261782, 0.0 ] } },
{ "type": "Feature", "properties": { "OBJECTID": 88, "Name": "Dar bennis medina", "phone": "0621-242940", "tourism": "hotel", "website": null, "TYPE": "hotels" }, "geometry": { "type": "Point", "coordinates": [ -6.83314026990746, 34.025950437262907, 0.0 ] } },
{ "type": "Feature", "properties": { "OBJECTID": 89, "Name": "Riad Al Bahi", "phone": "05377-28378", "tourism": "hotel", "website": null, "TYPE": "hotels" }, "geometry": { "type": "Point", "coordinates": [ -6.833806917555137, 34.026129021037548, 0.0 ] } },
{ "type": "Feature", "properties": { "OBJECTID": 90, "Name": "Riad El Maâti", "phone": "05377-25716", "tourism": "hotel", "website": "riadelmaati.com", "TYPE": "hotels" }, "geometry": { "type": "Point", "coordinates": [ -6.834639941580008, 34.025748498994062, 0.0 ] } },
{ "type": "Feature", "properties": { "OBJECTID": 91, "Name": "Dar Al Jeld Guesthouse", "phone": "0656-285656", "tourism": "hotel", "website": null, "TYPE": "hotels" }, "geometry": { "type": "Point", "coordinates": [ -6.835953540823198, 34.025385184578681, 0.0 ] } },
{ "type": "Feature", "properties": { "OBJECTID": 92, "Name": "Riad Palais D'Or", "phone": null, "tourism": "hotel", "website": null, "TYPE": "hotels" }, "geometry": { "type": "Point", "coordinates": [ -6.834938899610506, 34.026672186372366, 0.0 ] } },
{ "type": "Feature", "properties": { "OBJECTID": 93, "Name": "Riad Jbara", "phone": "05377-36221", "tourism": "hotel", "website": "riadjbara.morocco-ma.website", "TYPE": "hotels" }, "geometry": { "type": "Point", "coordinates": [ -6.83577165114076, 34.026849168454419, 0.0 ] } },
{ "type": "Feature", "properties": { "OBJECTID": 94, "Name": "Dar Mounia", "phone": "0661-545454", "tourism": "hotel", "website": "darmounia.site", "TYPE": "hotels" }, "geometry": { "type": "Point", "coordinates": [ -6.835891766391853, 34.029490840629819, 0.0 ] } },
{ "type": "Feature", "properties": { "OBJECTID": 95, "Name": "Villa Chakiba", "phone": null, "tourism": "guest_house", "website": null, "TYPE": "hotels" }, "geometry": { "type": "Point", "coordinates": [ -6.81769850028553, 33.90828160021573, 0.0 ] } },
{ "type": "Feature", "properties": { "OBJECTID": 96, "Name": "The Ritz-Carlton Rabat Dar Es Salam", "phone": null, "tourism": "hotel", "website": null, "TYPE": "hotels" }, "geometry": { "type": "Point", "coordinates": [ -6.840914800177814, 33.920364500021719, 0.0 ] } },
{ "type": "Feature", "properties": { "OBJECTID": 97, "Name": null, "phone": null, "tourism": "viewpoint", "website": null, "TYPE": "EcoTourism" }, "geometry": { "type": "Point", "coordinates": [ -6.820507799795053, 34.008404200093821, 0.0 ] } },
{ "type": "Feature", "properties": { "OBJECTID": 98, "Name": "Villa Mandarine", "phone": null, "tourism": "hotel", "website": null, "TYPE": "hotels" }, "geometry": { "type": "Point", "coordinates": [ -6.847702499870422, 33.964868299532441, 0.0 ] } },
{ "type": "Feature", "properties": { "OBJECTID": 99, "Name": "Hôtel Atlantic", "phone": "+212 5 37 27 33 00", "tourism": "hotel", "website": "https:\/\/atlanticagdal.com\/", "TYPE": "hotels" }, "geometry": { "type": "Point", "coordinates": [ -6.847437399516309, 33.996533699470717, 0.0 ] } },
{ "type": "Feature", "properties": { "OBJECTID": 100, "Name": "Gardenia", "phone": "05377-77600", "tourism": "hotel", "website": "gardeniarabat.com", "TYPE": "hotels" }, "geometry": { "type": "Point", "coordinates": [ -6.847492099880469, 33.996244699633223, 0.0 ] } },
{ "type": "Feature", "properties": { "OBJECTID": 101, "Name": "Soundouss Hotel", "phone": "05372-78888", "tourism": "hotel", "website": null, "TYPE": "hotels" }, "geometry": { "type": "Point", "coordinates": [ -6.85095619936908, 33.995443699567147, 0.0 ] } },
{ "type": "Feature", "properties": { "OBJECTID": 102, "Name": "Hotel Mercure Sherazade", "phone": null, "tourism": "hotel", "website": null, "TYPE": "hotels" }, "geometry": { "type": "Point", "coordinates": [ -6.822884800593044, 34.019210300015402, 0.0 ] } },
{ "type": "Feature", "properties": { "OBJECTID": 103, "Name": "Annakhil", "phone": null, "tourism": "hotel", "website": null, "TYPE": "hotels" }, "geometry": { "type": "Point", "coordinates": [ -6.825413499933006, 34.017448299699311, 0.0 ] } },
{ "type": "Feature", "properties": { "OBJECTID": 104, "Name": null, "phone": null, "tourism": "attraction", "website": null, "TYPE": "Cultural Tourism" }, "geometry": { "type": "Point", "coordinates": [ -6.822347000613547, 34.022318899297829, 0.0 ] } },
{ "type": "Feature", "properties": { "OBJECTID": 105, "Name": "Tour Hassan", "phone": null, "tourism": "viewpoint", "website": null, "TYPE": "EcoTourism" }, "geometry": { "type": "Point", "coordinates": [ -6.822776200261387, 34.024109998977337, 0.0 ] } },
{ "type": "Feature", "properties": { "OBJECTID": 106, "Name": "Le Diwan", "phone": null, "tourism": "hotel", "website": null, "TYPE": "hotels" }, "geometry": { "type": "Point", "coordinates": [ -6.827905899937264, 34.017574100464401, 0.0 ] } },
{ "type": "Feature", "properties": { "OBJECTID": 107, "Name": "Hôtel La Tour Hassan", "phone": "05372-39000", "tourism": "hotel", "website": "tourhassanpalace.com", "TYPE": "hotels" }, "geometry": { "type": "Point", "coordinates": [ -6.829844199749971, 34.019634699981452, 0.0 ] } },
{ "type": "Feature", "properties": { "OBJECTID": 108, "Name": "Hôtel Rihab", "phone": "+212 5 37 70 62 70;+212 6 61 55 50 58", "tourism": "hotel", "website": "https:\/\/www.rihabhotel.com\/", "TYPE": "hotels" }, "geometry": { "type": "Point", "coordinates": [ -6.827191699737114, 34.020686299732972, 0.0 ] } },
{ "type": "Feature", "properties": { "OBJECTID": 109, "Name": "Hotel Farah Rabat", "phone": "05372-37400", "tourism": "hotel", "website": "barcelo.com", "TYPE": "hotels" }, "geometry": { "type": "Point", "coordinates": [ -6.826042799635445, 34.025772199727271, 0.0 ] } },
{ "type": "Feature", "properties": { "OBJECTID": 110, "Name": "Imperial Hôtel Rabat", "phone": "05377-22018", "tourism": "hotel", "website": "imperial-hotel-rabat.top", "TYPE": "hotels" }, "geometry": { "type": "Point", "coordinates": [ -6.828931000265413, 34.020417299918506, 0.0 ] } },
{ "type": "Feature", "properties": { "OBJECTID": 111, "Name": "Hôtel Rabat", "phone": "05377-00071", "tourism": "hotel", "website": "hotelrabat.ma", "TYPE": "hotels" }, "geometry": { "type": "Point", "coordinates": [ -6.829891899791278, 34.020536200185518, 0.0 ] } },
{ "type": "Feature", "properties": { "OBJECTID": 112, "Name": "StrStreet Art: Prince Saharaeet Art", "phone": null, "tourism": "artwork", "website": null, "TYPE": "Cultural Tourism" }, "geometry": { "type": "Point", "coordinates": [ -6.830265700301766, 34.016001900267554, 0.0 ] } },
{ "type": "Feature", "properties": { "OBJECTID": 113, "Name": "Helnan Chellah", "phone": "+212 537 66 83 00", "tourism": "hotel", "website": "https:\/\/www.helnan.com\/", "TYPE": "hotels" }, "geometry": { "type": "Point", "coordinates": [ -6.83172770027312, 34.014280100546273, 0.0 ] } },
{ "type": "Feature", "properties": { "OBJECTID": 114, "Name": "Le Pietri", "phone": null, "tourism": "hotel", "website": null, "TYPE": "hotels" }, "geometry": { "type": "Point", "coordinates": [ -6.832210100215889, 34.016237699810063, 0.0 ] } },
{ "type": "Feature", "properties": { "OBJECTID": 115, "Name": "Postal Museum", "phone": null, "tourism": "attraction", "website": null, "TYPE": "Cultural Tourism" }, "geometry": { "type": "Point", "coordinates": [ -6.834712000658271, 34.014864999819963, 0.0 ] } },
{ "type": "Feature", "properties": { "OBJECTID": 116, "Name": "Hotel Velleda", "phone": null, "tourism": "hotel", "website": null, "TYPE": "hotels" }, "geometry": { "type": "Point", "coordinates": [ -6.834200199179804, 34.017175699898701, 0.0 ] } },
{ "type": "Feature", "properties": { "OBJECTID": 117, "Name": "Malak Hôtel", "phone": null, "tourism": "hotel", "website": "http:\/\/www.malakhotel.com\/", "TYPE": "hotels" }, "geometry": { "type": "Point", "coordinates": [ -6.830873499912059, 34.021956100193904, 0.0 ] } },
{ "type": "Feature", "properties": { "OBJECTID": 118, "Name": "Bivouac autorisé", "phone": null, "tourism": "camp_site", "website": null, "TYPE": "EcoTourism" }, "geometry": { "type": "Point", "coordinates": [ -6.830750899834129, 34.027198600035433, 0.0 ] } },
{ "type": "Feature", "properties": { "OBJECTID": 119, "Name": "Hôtel Bouregreg", "phone": "05377-20414", "tourism": "hotel", "website": "maghrebtourism.com", "TYPE": "hotels" }, "geometry": { "type": "Point", "coordinates": [ -6.832152000414453, 34.024145399890358, 0.0 ] } },
{ "type": "Feature", "properties": { "OBJECTID": 120, "Name": "Riad Dar El Ghali", "phone": null, "tourism": "guest_house", "website": null, "TYPE": "hotels" }, "geometry": { "type": "Point", "coordinates": [ -6.833555999509713, 34.027239600127473, 0.0 ] } },
{ "type": "Feature", "properties": { "OBJECTID": 121, "Name": "Plage de Salé Ville", "phone": null, "tourism": "camp_site", "website": null, "TYPE": "EcoTourism" }, "geometry": { "type": "Point", "coordinates": [ -6.831550832404957, 34.036316298358543, 0.0 ] } },
{ "type": "Feature", "properties": { "OBJECTID": 122, "Name": "View on Kasbah", "phone": null, "tourism": "viewpoint", "website": null, "TYPE": "EcoTourism" }, "geometry": { "type": "Point", "coordinates": [ -6.830984600358988, 34.028242999814665, 0.0 ] } },
{ "type": "Feature", "properties": { "OBJECTID": 123, "Name": null, "phone": null, "tourism": "viewpoint", "website": null, "TYPE": "EcoTourism" }, "geometry": { "type": "Point", "coordinates": [ -6.834727499574399, 34.030478400557797, 0.0 ] } },
{ "type": "Feature", "properties": { "OBJECTID": 124, "Name": "Hôtel Bélère", "phone": null, "tourism": "hotel", "website": null, "TYPE": "hotels" }, "geometry": { "type": "Point", "coordinates": [ -6.836363500375171, 34.014527500443819, 0.0 ] } },
{ "type": "Feature", "properties": { "OBJECTID": 125, "Name": "Hôtel Balima", "phone": "00212 537 70 79 67", "tourism": "hotel", "website": "http:\/\/www.hotel-balima.net\/", "TYPE": "hotels" }, "geometry": { "type": "Point", "coordinates": [ -6.835291599327775, 34.018105099770594, 0.0 ] } },
{ "type": "Feature", "properties": { "OBJECTID": 126, "Name": "Le Musée de la Monnaie de Bank Al-Maghrib", "phone": "+212 (0)5 37 70 26 26", "tourism": "museum", "website": "https:\/\/www.bkam.ma\/musee\/A-propos\/Horaires-et-tarifs", "TYPE": "Cultural Tourism" }, "geometry": { "type": "Point", "coordinates": [ -6.835178100388987, 34.019422400623341, 0.0 ] } },
{ "type": "Feature", "properties": { "OBJECTID": 127, "Name": "Majliss", "phone": null, "tourism": "hotel", "website": null, "TYPE": "hotels" }, "geometry": { "type": "Point", "coordinates": [ -6.836665100613857, 34.01643579977241, 0.0 ] } },
{ "type": "Feature", "properties": { "OBJECTID": 128, "Name": "Royal Hôtel", "phone": null, "tourism": "hotel", "website": null, "TYPE": "hotels" }, "geometry": { "type": "Point", "coordinates": [ -6.835505700027966, 34.020701400249493, 0.0 ] } },
{ "type": "Feature", "properties": { "OBJECTID": 129, "Name": "Capitol", "phone": "05377-31236", "tourism": "hotel", "website": null, "TYPE": "hotels" }, "geometry": { "type": "Point", "coordinates": [ -6.83652609959978, 34.021331100150178, 0.0 ] } },
{ "type": "Feature", "properties": { "OBJECTID": 130, "Name": "Dar Aida", "phone": null, "tourism": "guest_house", "website": null, "TYPE": "hotels" }, "geometry": { "type": "Point", "coordinates": [ -6.835164499941698, 34.026826199769346, 0.0 ] } },
{ "type": "Feature", "properties": { "OBJECTID": 131, "Name": "Riad Dar Lina Ryad", "phone": null, "tourism": "guest_house", "website": null, "TYPE": "hotels" }, "geometry": { "type": "Point", "coordinates": [ -6.835593599764763, 34.027019799524169, 0.0 ] } },
{ "type": "Feature", "properties": { "OBJECTID": 132, "Name": "Ahlan Carolina", "phone": null, "tourism": "guest_house", "website": null, "TYPE": "hotels" }, "geometry": { "type": "Point", "coordinates": [ -6.835870400298688, 34.026073400666974, 0.0 ] } },
{ "type": "Feature", "properties": { "OBJECTID": 133, "Name": "Riad Dar Dar", "phone": null, "tourism": "guest_house", "website": null, "TYPE": "hotels" }, "geometry": { "type": "Point", "coordinates": [ -6.8367506000601, 34.026311600500037, 0.0 ] } },
{ "type": "Feature", "properties": { "OBJECTID": 134, "Name": "Splendide", "phone": "05377-23283", "tourism": "hotel", "website": null, "TYPE": "hotels" }, "geometry": { "type": "Point", "coordinates": [ -6.836994100497293, 34.020925398888096, 0.0 ] } },
{ "type": "Feature", "properties": { "OBJECTID": 135, "Name": "Berlin", "phone": "05377-03435", "tourism": "hotel", "website": null, "TYPE": "hotels" }, "geometry": { "type": "Point", "coordinates": [ -6.837480899923548, 34.021387899531987, 0.0 ] } },
{ "type": "Feature", "properties": { "OBJECTID": 136, "Name": "Hôtel Gaulois", "phone": "05377-23022", "tourism": "hotel", "website": null, "TYPE": "hotels" }, "geometry": { "type": "Point", "coordinates": [ -6.837802399461111, 34.021004499657977, 0.0 ] } },
{ "type": "Feature", "properties": { "OBJECTID": 137, "Name": "Riad Dar Zour", "phone": null, "tourism": "guest_house", "website": "https:\/\/www.darzouhour.com\/", "TYPE": "hotels" }, "geometry": { "type": "Point", "coordinates": [ -6.838039000299602, 34.022498600030417, 0.0 ] } },
{ "type": "Feature", "properties": { "OBJECTID": 138, "Name": "KAYEZER Hostel", "phone": "00212661217931", "tourism": "hostel", "website": "https:\/\/www.german.hostelworld.com\/hosteldetails.php\/Kayezer\/Rabat\/302007", "TYPE": "hotels" }, "geometry": { "type": "Point", "coordinates": [ -6.837671700088833, 34.023247800045965, 0.0 ] } },
{ "type": "Feature", "properties": { "OBJECTID": 139, "Name": "Hôtel Dorhmi", "phone": "037723898", "tourism": "hotel", "website": null, "TYPE": "hotels" }, "geometry": { "type": "Point", "coordinates": [ -6.838137199971754, 34.023129600350842, 0.0 ] } },
{ "type": "Feature", "properties": { "OBJECTID": 140, "Name": "Hôtel des Voyageurs", "phone": null, "tourism": "hotel", "website": null, "TYPE": "hotels" }, "geometry": { "type": "Point", "coordinates": [ -6.838696800416983, 34.022971200060908, 0.0 ] } },
{ "type": "Feature", "properties": { "OBJECTID": 141, "Name": "Hôtel Assaada", "phone": null, "tourism": "hotel", "website": null, "TYPE": "hotels" }, "geometry": { "type": "Point", "coordinates": [ -6.839068500111125, 34.022863199577046, 0.0 ] } },
{ "type": "Feature", "properties": { "OBJECTID": 142, "Name": "Hôtel Renaissance", "phone": null, "tourism": "guest_house", "website": null, "TYPE": "hotels" }, "geometry": { "type": "Point", "coordinates": [ -6.838396300049169, 34.024861199984457, 0.0 ] } },
{ "type": "Feature", "properties": { "OBJECTID": 143, "Name": "Hôtel Majestic", "phone": null, "tourism": "hotel", "website": null, "TYPE": "hotels" }, "geometry": { "type": "Point", "coordinates": [ -6.839444299814545, 34.021287199744506, 0.0 ] } },
{ "type": "Feature", "properties": { "OBJECTID": 144, "Name": "Hôtel d'Alger", "phone": null, "tourism": "hotel", "website": null, "TYPE": "hotels" }, "geometry": { "type": "Point", "coordinates": [ -6.839331800022478, 34.022791100029281, 0.0 ] } },
{ "type": "Feature", "properties": { "OBJECTID": 145, "Name": "Hôtel de France", "phone": null, "tourism": "hotel", "website": null, "TYPE": "hotels" }, "geometry": { "type": "Point", "coordinates": [ -6.839516799560613, 34.022681800025111, 0.0 ] } },
{ "type": "Feature", "properties": { "OBJECTID": 146, "Name": "Alsace", "phone": null, "tourism": "hotel", "website": null, "TYPE": "hotels" }, "geometry": { "type": "Point", "coordinates": [ -6.841317399678189, 34.020230900135971, 0.0 ] } },
{ "type": "Feature", "properties": { "OBJECTID": 147, "Name": "Hôtel Afrique", "phone": null, "tourism": "hotel", "website": null, "TYPE": "hotels" }, "geometry": { "type": "Point", "coordinates": [ -6.842471099461648, 34.020696999866686, 0.0 ] } },
{ "type": "Feature", "properties": { "OBJECTID": 148, "Name": "Hôtel Dakar", "phone": "05372-08026", "tourism": "hotel", "website": null, "TYPE": "hotels" }, "geometry": { "type": "Point", "coordinates": [ -6.842870799547711, 34.021128300330872, 0.0 ] } },
{ "type": "Feature", "properties": { "OBJECTID": 149, "Name": "Riad Meftaha", "phone": "05377-21406", "tourism": "guest_house", "website": "riad-meftaha.com", "TYPE": "hotels" }, "geometry": { "type": "Point", "coordinates": [ -6.842463174635782, 34.025455451308062, 0.0 ] } },
{ "type": "Feature", "properties": { "OBJECTID": 150, "Name": null, "phone": null, "tourism": "viewpoint", "website": null, "TYPE": "EcoTourism" }, "geometry": { "type": "Point", "coordinates": [ -6.835065700421694, 34.030506800248702, 0.0 ] } },
{ "type": "Feature", "properties": { "OBJECTID": 151, "Name": "Dar May", "phone": null, "tourism": "chalet", "website": "https:\/\/www.airbnb.co.uk\/rooms\/1980423", "TYPE": "hotels" }, "geometry": { "type": "Point", "coordinates": [ -6.835443299668498, 34.030686999205727, 0.0 ] } },
{ "type": "Feature", "properties": { "OBJECTID": 152, "Name": "Tour des Pirates", "phone": null, "tourism": "viewpoint", "website": null, "TYPE": "EcoTourism" }, "geometry": { "type": "Point", "coordinates": [ -6.834813400118264, 34.032087099739897, 0.0 ] } },
{ "type": "Feature", "properties": { "OBJECTID": 153, "Name": null, "phone": null, "tourism": "viewpoint", "website": null, "TYPE": "EcoTourism" }, "geometry": { "type": "Point", "coordinates": [ -6.834974099974716, 34.032197600339032, 0.0 ] } },
{ "type": "Feature", "properties": { "OBJECTID": 154, "Name": "Dar El Baraka", "phone": null, "tourism": "guest_house", "website": null, "TYPE": "hotels" }, "geometry": { "type": "Point", "coordinates": [ -6.835169699821734, 34.032489000467024, 0.0 ] } },
{ "type": "Feature", "properties": { "OBJECTID": 155, "Name": "Dar Rhyzlene", "phone": null, "tourism": "guest_house", "website": null, "TYPE": "hotels" }, "geometry": { "type": "Point", "coordinates": [ -6.835397599719386, 34.032023800058369, 0.0 ] } },
{ "type": "Feature", "properties": { "OBJECTID": 156, "Name": "Plateforme du Sémaphore", "phone": null, "tourism": "viewpoint", "website": null, "TYPE": "EcoTourism" }, "geometry": { "type": "Point", "coordinates": [ -6.835340200489838, 34.033118299270143, 0.0 ] } },
{ "type": "Feature", "properties": { "OBJECTID": 157, "Name": "Dar Zouina", "phone": null, "tourism": "guest_house", "website": null, "TYPE": "hotels" }, "geometry": { "type": "Point", "coordinates": [ -6.835584899723301, 34.032659199862223, 0.0 ] } },
{ "type": "Feature", "properties": { "OBJECTID": 158, "Name": null, "phone": null, "tourism": "viewpoint", "website": null, "TYPE": "EcoTourism" }, "geometry": { "type": "Point", "coordinates": [ -6.835627999732367, 34.033057800077472, 0.0 ] } },
{ "type": "Feature", "properties": { "OBJECTID": 159, "Name": "Hôtel des Oudaias", "phone": "05372-00444", "tourism": "hotel", "website": "hoteldesoudaias.com", "TYPE": "hotels" }, "geometry": { "type": "Point", "coordinates": [ -6.837230100588613, 34.02966709965699, 0.0 ] } },
{ "type": "Feature", "properties": { "OBJECTID": 160, "Name": "Hôtel Texuda", "phone": "05377-30032", "tourism": "hotel", "website": null, "TYPE": "hotels" }, "geometry": { "type": "Point", "coordinates": [ -6.84614149983031, 34.022879399964381, 0.0 ] } },
{ "type": "Feature", "properties": { "OBJECTID": 161, "Name": "Dar El Idrissi", "phone": null, "tourism": "hotel", "website": null, "TYPE": "hotels" }, "geometry": { "type": "Point", "coordinates": [ -6.836659899834444, 34.024211900259047, 0.0 ] } },
{ "type": "Feature", "properties": { "OBJECTID": 162, "Name": "Rabat Marriott Hotel", "phone": null, "tourism": "hotel", "website": null, "TYPE": "hotels" }, "geometry": { "type": "Point", "coordinates": [ -6.844700700476892, 34.004072699995163, 0.0 ] } },
{ "type": "Feature", "properties": { "OBJECTID": 163, "Name": null, "phone": null, "tourism": "gallery", "website": null, "TYPE": "Cultural Tourism" }, "geometry": { "type": "Point", "coordinates": [ -6.834905899887303, 34.029207900424296, 0.0 ] } },
{ "type": "Feature", "properties": { "OBJECTID": 164, "Name": "Borj Adoumoue - Site historique", "phone": null, "tourism": "museum", "website": null, "TYPE": "Cultural Tourism" }, "geometry": { "type": "Point", "coordinates": [ -6.832358799518943, 34.04251639991196, 0.0 ] } },
{ "type": "Feature", "properties": { "OBJECTID": 165, "Name": "Hôtel Eljadid", "phone": null, "tourism": "hotel", "website": null, "TYPE": "hotels" }, "geometry": { "type": "Point", "coordinates": [ -6.83886530009346, 34.025161700352214, 0.0 ] } },
{ "type": "Feature", "properties": { "OBJECTID": 166, "Name": "Poupées du Monde", "phone": null, "tourism": "attraction", "website": null, "TYPE": "Cultural Tourism" }, "geometry": { "type": "Point", "coordinates": [ -6.835440599903734, 34.026613199839346, 0.0 ] } },
{ "type": "Feature", "properties": { "OBJECTID": 167, "Name": "Dar Rita", "phone": "+212 654-024998", "tourism": "hotel", "website": "https:\/\/dar-rita-guest-house.business.site\/?utm_source=gmb&utm_medium=referral", "TYPE": "hotels" }, "geometry": { "type": "Point", "coordinates": [ -6.836673900480093, 34.02321980055342, 0.0 ] } },
{ "type": "Feature", "properties": { "OBJECTID": 168, "Name": null, "phone": null, "tourism": "museum", "website": null, "TYPE": "Cultural Tourism" }, "geometry": { "type": "Point", "coordinates": [ -6.850947399502843, 34.024827200215157, 0.0 ] } },
{ "type": "Feature", "properties": { "OBJECTID": 169, "Name": "Good wild camping spot", "phone": null, "tourism": "camp_site", "website": null, "TYPE": "EcoTourism" }, "geometry": { "type": "Point", "coordinates": [ -6.843279899347806, 34.031430299668671, 0.0 ] } },
{ "type": "Feature", "properties": { "OBJECTID": 170, "Name": "Riad El Pacha", "phone": "0601-382536", "tourism": "hotel", "website": "riadelpacha.com", "TYPE": "hotels" }, "geometry": { "type": "Point", "coordinates": [ -6.838679000135699, 34.027946700180109, 0.0 ] } },
{ "type": "Feature", "properties": { "OBJECTID": 171, "Name": "Visitors Gate Royal Palace", "phone": null, "tourism": "attraction", "website": null, "TYPE": "Cultural Tourism" }, "geometry": { "type": "Point", "coordinates": [ -6.830322200209309, 34.009691399738358, 0.0 ] } },
{ "type": "Feature", "properties": { "OBJECTID": 172, "Name": "Ubay Hôtel", "phone": "+212537734034", "tourism": "hotel", "website": "https:\/\/ubayhotel.morocco-ma.website\/", "TYPE": "hotels" }, "geometry": { "type": "Point", "coordinates": [ -6.829747599971711, 34.013029999734727, 0.0 ] } },
{ "type": "Feature", "properties": { "OBJECTID": 173, "Name": "Muséum National d'Histoire Naturelle - Institut Scientifique", "phone": null, "tourism": "museum", "website": null, "TYPE": "Cultural Tourism" }, "geometry": { "type": "Point", "coordinates": [ -6.838765800001624, 34.006281599516228, 0.0 ] } },
{ "type": "Feature", "properties": { "OBJECTID": 174, "Name": "Musée des Instruments de Géophysique et de Météorologie du Maroc", "phone": null, "tourism": "museum", "website": null, "TYPE": "Cultural Tourism" }, "geometry": { "type": "Point", "coordinates": [ -6.838825100398026, 34.00611640035163, 0.0 ] } },
{ "type": "Feature", "properties": { "OBJECTID": 175, "Name": "Musée Mohammed VI d'art moderne et contemporain متحف محمد السادس للفن الحديث والمعاصر", "phone": null, "tourism": "museum", "website": "http:\/\/www.museemohammed6.ma\/", "TYPE": "Cultural Tourism" }, "geometry": { "type": "Point", "coordinates": [ -6.83279999972018, 34.015116599551504, 0.0 ] } },
{ "type": "Feature", "properties": { "OBJECTID": 176, "Name": "Rabat City Hostel", "phone": null, "tourism": "hostel", "website": "https:\/\/www.hostelworld.com\/st\/hostels\/p\/320163\/rabat-city-hostel\/", "TYPE": "hotels" }, "geometry": { "type": "Point", "coordinates": [ -6.834424199617047, 34.026378099969406, 0.0 ] } },
{ "type": "Feature", "properties": { "OBJECTID": 177, "Name": "Hôtel La Capitale", "phone": "05377-37307\r\n05377-37307\r\n05377-37307", "tourism": "hotel", "website": "hotellacapitale.top", "TYPE": "hotels" }, "geometry": { "type": "Point", "coordinates": [ -6.832769400287532, 34.017802299836319, 0.0 ] } },
{ "type": "Feature", "properties": { "OBJECTID": 178, "Name": "Monumental porch", "phone": null, "tourism": "attraction", "website": null, "TYPE": "Cultural Tourism" }, "geometry": { "type": "Point", "coordinates": [ -6.838734599821862, 34.025732200580649, 0.0 ] } },
{ "type": "Feature", "properties": { "OBJECTID": 179, "Name": "Flower Town Hotel & Spa", "phone": "05372-75727", "tourism": "hotel", "website": "flowertown-hotel.com", "TYPE": "hotels" }, "geometry": { "type": "Point", "coordinates": [ -6.848821699861503, 33.993667900053595, 0.0 ] } },
{ "type": "Feature", "properties": { "OBJECTID": 180, "Name": "Riad Dar Ouezzani", "phone": "+212661372226", "tourism": "hotel", "website": "booking.com", "TYPE": "hotels" }, "geometry": { "type": "Point", "coordinates": [ -6.837124499495985, 34.027238100058298, 0.0 ] } },
{ "type": "Feature", "properties": { "OBJECTID": 181, "Name": "Riad Dar Chrifa", "phone": "0666-064460", "tourism": "hotel", "website": "darchrifarabat.com", "TYPE": "hotels" }, "geometry": { "type": "Point", "coordinates": [ -6.838037199856842, 34.026693300655324, 0.0 ] } },
{ "type": "Feature", "properties": { "OBJECTID": 182, "Name": null, "phone": null, "tourism": "viewpoint", "website": null, "TYPE": "EcoTourism" }, "geometry": { "type": "Point", "coordinates": [ -6.821288600188723, 34.024144599493695, 0.0 ] } },
{ "type": "Feature", "properties": { "OBJECTID": 183, "Name": "Dar Kika Selam by DKS", "phone": "05377-61729", "tourism": "hotel", "website": "dks.ma", "TYPE": "hotels" }, "geometry": { "type": "Point", "coordinates": [ -6.836820800239707, 34.029323400354713, 0.0 ] } }
]
}
