{
"type": "FeatureCollection",
"name": "StopBus-Tanger",
"crs": { "type": "name", "properties": { "name": "urn:ogc:def:crs:OGC:1.3:CRS84" } },
"features": [
{ "type": "Feature", "properties": { "OBJECTID": 1, "name": "Marstarkhouch", "Line": null }, "geometry": { "type": "Point", "coordinates": [ -5.832300799742086, 35.778614699608738 ] } },
{ "type": "Feature", "properties": { "OBJECTID": 2, "name": "Mosquée Badr", "Line": "L2-LI5-L8-L16" }, "geometry": { "type": "Point", "coordinates": [ -5.808448799672306, 35.770319800018797 ] } },
{ "type": "Feature", "properties": { "OBJECTID": 3, "name": "Mosquée Mowahidin", "Line": null }, "geometry": { "type": "Point", "coordinates": [ -5.831096899802048, 35.785542400361521 ] } },
{ "type": "Feature", "properties": { "OBJECTID": 4, "name": "Mabrouk", "Line": "L6-LI9" }, "geometry": { "type": "Point", "coordinates": [ -5.814065900420928, 35.775229100142894 ] } },
{ "type": "Feature", "properties": { "OBJECTID": 5, "name": "Café Picasso", "Line": "L2-L10-LI5" }, "geometry": { "type": "Point", "coordinates": [ -5.812032099801513, 35.770786499597307 ] } },
{ "type": "Feature", "properties": { "OBJECTID": 6, "name": "Centre Santé Saïd Noussairi", "Line": "L3-L7-L9A-L11-LI11-L12" }, "geometry": { "type": "Point", "coordinates": [ -5.814493199801291, 35.770118899567592 ] } },
{ "type": "Feature", "properties": { "OBJECTID": 7, "name": "Ras Msallah", "Line": "L6-L18-L14" }, "geometry": { "type": "Point", "coordinates": [ -5.816226199679306, 35.780755700315353 ] } },
{ "type": "Feature", "properties": { "OBJECTID": 8, "name": "Lycée Ibn Alkhatib", "Line": "LI5-L6-L7-L9A-L10-LI10-L11-LI11-L12" }, "geometry": { "type": "Point", "coordinates": [ -5.816982700391236, 35.773975599894072 ] } },
{ "type": "Feature", "properties": { "OBJECTID": 9, "name": "Place Oued al Makhazine", "Line": "L3-LI5-L7-L9A-L10-LI10-L11-LI11-L12" }, "geometry": { "type": "Point", "coordinates": [ -5.819734599771891, 35.777227200375023 ] } },
{ "type": "Feature", "properties": { "OBJECTID": 10, "name": "Bir Chifa", "Line": null }, "geometry": { "type": "Point", "coordinates": [ -5.827739200004032, 35.743204799661839 ] } },
{ "type": "Feature", "properties": { "OBJECTID": 11, "name": "Police Bni Makada", "Line": "LI1-LI6-LI14-L11-L27-L30" }, "geometry": { "type": "Point", "coordinates": [ -5.798584399650281, 35.747614399584904 ] } },
{ "type": "Feature", "properties": { "OBJECTID": 12, "name": "Marché Centrale", "Line": null }, "geometry": { "type": "Point", "coordinates": [ -5.798622500328065, 35.749104700321709 ] } },
{ "type": "Feature", "properties": { "OBJECTID": 13, "name": "Entree Sania", "Line": "LI3-LI5-LI12-L14-L16" }, "geometry": { "type": "Point", "coordinates": [ -5.759404199943845, 35.782782700261464 ] } },
{ "type": "Feature", "properties": { "OBJECTID": 14, "name": "Ksar Diyafa", "Line": "LI3-L8-LI12-L14-L16" }, "geometry": { "type": "Point", "coordinates": [ -5.77546149974836, 35.772741599645144 ] } },
{ "type": "Feature", "properties": { "OBJECTID": 15, "name": "Place Roudani", "Line": null }, "geometry": { "type": "Point", "coordinates": [ -5.800371199671076, 35.775656299698539 ] } },
{ "type": "Feature", "properties": { "OBJECTID": 16, "name": "Place Mozart", "Line": "L2-L16-L8-L13-LI13-LI24-LI9-LI4" }, "geometry": { "type": "Point", "coordinates": [ -5.796185199986951, 35.771872400391032 ] } },
{ "type": "Feature", "properties": { "OBJECTID": 17, "name": "Mosquee Mohamed V", "Line": "L5" }, "geometry": { "type": "Point", "coordinates": [ -5.821189899793978, 35.781185599635762 ] } },
{ "type": "Feature", "properties": { "OBJECTID": 18, "name": "Pharmacie Camilia", "Line": "2" }, "geometry": { "type": "Point", "coordinates": [ -5.829385999863973, 35.773074800261895 ] } },
{ "type": "Feature", "properties": { "OBJECTID": 19, "name": "Place Oued al Makhazine", "Line": "L3-LI5-L6-L7-L9A-L10-LI10-L11-LI11-L12" }, "geometry": { "type": "Point", "coordinates": [ -5.818981299747122, 35.777546299622088 ] } },
{ "type": "Feature", "properties": { "OBJECTID": 20, "name": "Sania", "Line": null }, "geometry": { "type": "Point", "coordinates": [ -5.758216200017557, 35.780173499907164 ] } },
{ "type": "Feature", "properties": { "OBJECTID": 21, "name": "Shuttle To Tanger Med", "Line": null }, "geometry": { "type": "Point", "coordinates": [ -5.803220799600183, 35.769373599911773 ] } },
{ "type": "Feature", "properties": { "OBJECTID": 22, "name": "Foret Rmilate", "Line": null }, "geometry": { "type": "Point", "coordinates": [ -5.865438600311109, 35.787575500409048 ] } },
{ "type": "Feature", "properties": { "OBJECTID": 23, "name": "Hawmat Dzairi", "Line": null }, "geometry": { "type": "Point", "coordinates": [ -5.845527499594368, 35.782122800227114 ] } },
{ "type": "Feature", "properties": { "OBJECTID": 24, "name": "Mesnana", "Line": "L1B-L2-L2A-L21-L26" }, "geometry": { "type": "Point", "coordinates": [ -5.851359999664226, 35.752677900164997 ] } },
{ "type": "Feature", "properties": { "OBJECTID": 25, "name": "Lycée Ibn Alkhatib", "Line": "LI5-L6-L7-L9A-L10-LI10-L11-LI11-L12" }, "geometry": { "type": "Point", "coordinates": [ -5.817194300076835, 35.773914999977308 ] } },
{ "type": "Feature", "properties": { "OBJECTID": 26, "name": "Atacadao", "Line": "LI2-LI8-L9A-LI10-LI11-L19" }, "geometry": { "type": "Point", "coordinates": [ -5.886503300087156, 35.727463199667 ] } },
{ "type": "Feature", "properties": { "OBJECTID": 27, "name": "Haskouri", "Line": "LI3-LI5-L8-LI12-L14-L16-L20" }, "geometry": { "type": "Point", "coordinates": [ -5.762197200140633, 35.769082799631576 ] } },
{ "type": "Feature", "properties": { "OBJECTID": 28, "name": "Boukhalef2", "Line": "L1-L1B-L2" }, "geometry": { "type": "Point", "coordinates": [ -5.880485699755184, 35.734767299970997 ] } },
{ "type": "Feature", "properties": { "OBJECTID": 29, "name": "Pocargil", "Line": "LI4-LI7-L10-LI13-L13-LI16-L23-LI24" }, "geometry": { "type": "Point", "coordinates": [ -5.774308700186339, 35.740730500312395 ] } },
{ "type": "Feature", "properties": { "OBJECTID": 30, "name": "Ghandouri", "Line": null }, "geometry": { "type": "Point", "coordinates": [ -5.75493419975345, 35.787995400167631 ] } },
{ "type": "Feature", "properties": { "OBJECTID": 31, "name": "Z. I. Mghogha", "Line": "LI4-LI7-L10-LI13-L13-LI16-L23-LI24" }, "geometry": { "type": "Point", "coordinates": [ -5.766412399912269, 35.736359900389118 ] } },
{ "type": "Feature", "properties": { "OBJECTID": 32, "name": "Place Medina", "Line": "L6-LI9" }, "geometry": { "type": "Point", "coordinates": [ -5.810626499912985, 35.775420699805522 ] } },
{ "type": "Feature", "properties": { "OBJECTID": 33, "name": "Lycée Abi Bakr Razi", "Line": null }, "geometry": { "type": "Point", "coordinates": [ -5.811862500254165, 35.768948299724286 ] } },
{ "type": "Feature", "properties": { "OBJECTID": 34, "name": "Aswak Assalam", "Line": "L1-L1B-L2-L2A-L21-L26" }, "geometry": { "type": "Point", "coordinates": [ -5.872829499581712, 35.739050699829988 ] } },
{ "type": "Feature", "properties": { "OBJECTID": 35, "name": "Station Afriquia", "Line": "L1B-L2-L2A-L26" }, "geometry": { "type": "Point", "coordinates": [ -5.840176900343636, 35.761275499864496 ] } },
{ "type": "Feature", "properties": { "OBJECTID": 36, "name": "L2 Hopital Mohammed V", "Line": "2" }, "geometry": { "type": "Point", "coordinates": [ -5.82728679964606, 35.777928800174038 ] } },
{ "type": "Feature", "properties": { "OBJECTID": 37, "name": "M'Nar Park", "Line": null }, "geometry": { "type": "Point", "coordinates": [ -5.739218000210485, 35.810572300071669 ] } },
{ "type": "Feature", "properties": { "OBJECTID": 38, "name": "Cemetier Souani", "Line": null }, "geometry": { "type": "Point", "coordinates": [ -5.819302800184062, 35.767102600404712 ] } },
{ "type": "Feature", "properties": { "OBJECTID": 39, "name": "Avenida Marcha Verde", "Line": null }, "geometry": { "type": "Point", "coordinates": [ -5.813552599772606, 35.772032399675538 ] } },
{ "type": "Feature", "properties": { "OBJECTID": 40, "name": "École Sidi Mohamed Ibn Abdellah", "Line": "L3-LI5-L7-L9A-L10-LI10-L11-LI11-L12" }, "geometry": { "type": "Point", "coordinates": [ -5.818242000368002, 35.775624399846208 ] } },
{ "type": "Feature", "properties": { "OBJECTID": 41, "name": "École Sidi Mohamed Ibn Abdellah", "Line": "L3-LI5-L7-L9A-L10-LI10-L11-LI11-L12" }, "geometry": { "type": "Point", "coordinates": [ -5.818334099938738, 35.775454499925274 ] } },
{ "type": "Feature", "properties": { "OBJECTID": 42, "name": "Résidence le Ziryab", "Line": null }, "geometry": { "type": "Point", "coordinates": [ -5.814560200193057, 35.772159499960992 ] } },
{ "type": "Feature", "properties": { "OBJECTID": 43, "name": "Iberia إيبريا", "Line": "L3-L4B-L7-L9A-L10-L11-L12-L14-L17" }, "geometry": { "type": "Point", "coordinates": [ -5.822907200207055, 35.784033400021428 ] } },
{ "type": "Feature", "properties": { "OBJECTID": 44, "name": "Place des Nations", "Line": "L14-L18" }, "geometry": { "type": "Point", "coordinates": [ -5.803970200164542, 35.77669570014649 ] } },
{ "type": "Feature", "properties": { "OBJECTID": 45, "name": "Hawmat Chouk", "Line": "LI4-LI7-L13-LI13-LI16-L18-LI24" }, "geometry": { "type": "Point", "coordinates": [ -5.792846000142731, 35.75823449992231 ] } },
{ "type": "Feature", "properties": { "OBJECTID": 46, "name": "Hawmat Chouk", "Line": "LI4-LI7-L13-LI13-LI16-L18-LI24" }, "geometry": { "type": "Point", "coordinates": [ -5.79255340031915, 35.758220299627169 ] } },
{ "type": "Feature", "properties": { "OBJECTID": 47, "name": "Tribunal", "Line": "L10-L4-18-L23" }, "geometry": { "type": "Point", "coordinates": [ -5.789996000015321, 35.753149900347694 ] } },
{ "type": "Feature", "properties": { "OBJECTID": 48, "name": "Tribunal", "Line": "L10-L4-18-L23" }, "geometry": { "type": "Point", "coordinates": [ -5.789734299997917, 35.753295499687624 ] } },
{ "type": "Feature", "properties": { "OBJECTID": 49, "name": "Z. I. Mghogha", "Line": "LI4-LI7-L10-LI13-L13-LI16-L23-LI24" }, "geometry": { "type": "Point", "coordinates": [ -5.766696199869671, 35.736177599716484 ] } },
{ "type": "Feature", "properties": { "OBJECTID": 50, "name": "Entree Lehmam", "Line": "LI4-LI7-L10-LI13-L13-LI16-L23-LI24" }, "geometry": { "type": "Point", "coordinates": [ -5.783160399732594, 35.745750300136308 ] } },
{ "type": "Feature", "properties": { "OBJECTID": 51, "name": "Avenue de la Marche Verte", "Line": null }, "geometry": { "type": "Point", "coordinates": [ -5.813577500201404, 35.771925599786641 ] } },
{ "type": "Feature", "properties": { "OBJECTID": 52, "name": "Boukhalef Cite Universitaire", "Line": "L1-L1B-L2-L20-L21-L30" }, "geometry": { "type": "Point", "coordinates": [ -5.89253120035454, 35.734351699871127 ] } },
{ "type": "Feature", "properties": { "OBJECTID": 53, "name": "Boukhalef Cite Universitaire", "Line": "L1-L1B-L2-L20-L21-L30" }, "geometry": { "type": "Point", "coordinates": [ -5.892514199570599, 35.734270799557805 ] } },
{ "type": "Feature", "properties": { "OBJECTID": 54, "name": "Atacadao", "Line": "LI2-LI8-L9A-LI10-LI11-L19" }, "geometry": { "type": "Point", "coordinates": [ -5.885951799835652, 35.727396399824045 ] } },
{ "type": "Feature", "properties": { "OBJECTID": 55, "name": "Province Aouama", "Line": "L11-L27-L30" }, "geometry": { "type": "Point", "coordinates": [ -5.79908099988819, 35.743761599618153 ] } },
{ "type": "Feature", "properties": { "OBJECTID": 56, "name": "Résidence le Ziryab", "Line": null }, "geometry": { "type": "Point", "coordinates": [ -5.814781699615708, 35.771982900090791 ] } },
{ "type": "Feature", "properties": { "OBJECTID": 57, "name": "Mosquée Badr", "Line": null }, "geometry": { "type": "Point", "coordinates": [ -5.808646000312592, 35.77052230036395 ] } },
{ "type": "Feature", "properties": { "OBJECTID": 58, "name": "R. Point Hay Salam", "Line": null }, "geometry": { "type": "Point", "coordinates": [ -5.805878700041944, 35.741915299551465 ] } },
{ "type": "Feature", "properties": { "OBJECTID": 59, "name": "Tanja El Balia", "Line": "LI5-L8-LI12-L14-L16-L20" }, "geometry": { "type": "Point", "coordinates": [ -5.768474899696798, 35.771538599926487 ] } },
{ "type": "Feature", "properties": { "OBJECTID": 60, "name": "Café Picasso", "Line": "L2-L10-LI5" }, "geometry": { "type": "Point", "coordinates": [ -5.812009999861573, 35.770950099767333 ] } },
{ "type": "Feature", "properties": { "OBJECTID": 61, "name": "Nejma 2", "Line": null }, "geometry": { "type": "Point", "coordinates": [ -5.80041800039038, 35.774955699945622 ] } },
{ "type": "Feature", "properties": { "OBJECTID": 62, "name": "Nejma 2", "Line": null }, "geometry": { "type": "Point", "coordinates": [ -5.800621900080557, 35.7750255997517 ] } },
{ "type": "Feature", "properties": { "OBJECTID": 63, "name": "Consulat d'Espagne", "Line": null }, "geometry": { "type": "Point", "coordinates": [ -5.823926699557489, 35.780265499653126 ] } },
{ "type": "Feature", "properties": { "OBJECTID": 64, "name": "Plaza Toros بلاصة توروس", "Line": null }, "geometry": { "type": "Point", "coordinates": [ -5.797740000100873, 35.764942499896506 ] } },
{ "type": "Feature", "properties": { "OBJECTID": 65, "name": "Banque Populaire", "Line": "L1-L1B-L3-L12-L14-L27" }, "geometry": { "type": "Point", "coordinates": [ -5.792629699700854, 35.772617000374339 ] } },
{ "type": "Feature", "properties": { "OBJECTID": 66, "name": "R. Point Hay Salam", "Line": null }, "geometry": { "type": "Point", "coordinates": [ -5.806120999884172, 35.741857599948332 ] } },
{ "type": "Feature", "properties": { "OBJECTID": 67, "name": "Maison des Jeunes", "Line": "L5-L6-L14-L17-L18" }, "geometry": { "type": "Point", "coordinates": [ -5.817737100286877, 35.781921600301644 ] } },
{ "type": "Feature", "properties": { "OBJECTID": 68, "name": "Iberia Severo", "Line": "L2-L3-L6-L7-L9A-L10-L11-L12" }, "geometry": { "type": "Point", "coordinates": [ -5.820546700170041, 35.780905799862808 ] } },
{ "type": "Feature", "properties": { "OBJECTID": 69, "name": "Iberia Severo", "Line": "L2-L3-L7-L9A-L10-L11-L12" }, "geometry": { "type": "Point", "coordinates": [ -5.820680799878971, 35.780880900333329 ] } },
{ "type": "Feature", "properties": { "OBJECTID": 70, "name": "Place Roudani", "Line": null }, "geometry": { "type": "Point", "coordinates": [ -5.800571399550392, 35.775283299584657 ] } },
{ "type": "Feature", "properties": { "OBJECTID": 71, "name": "LI11   Casabarata", "Line": null }, "geometry": { "type": "Point", "coordinates": [ -5.824179400059222, 35.766567600014753 ] } },
{ "type": "Feature", "properties": { "OBJECTID": 72, "name": "Hawma El Oued", "Line": "LI3-LI5-L8-LI12-L14-L16-L20" }, "geometry": { "type": "Point", "coordinates": [ -5.759441400400249, 35.770378200193818 ] } },
{ "type": "Feature", "properties": { "OBJECTID": 73, "name": "Gare train", "Line": "L20-L22-L30" }, "geometry": { "type": "Point", "coordinates": [ -5.787370199974703, 35.769069700106627 ] } },
{ "type": "Feature", "properties": { "OBJECTID": 74, "name": "Mosquee El Fath", "Line": "L20-L22-L30" }, "geometry": { "type": "Point", "coordinates": [ -5.783210800438042, 35.764634599906913 ] } },
{ "type": "Feature", "properties": { "OBJECTID": 75, "name": "Gare Ferrovaire", "Line": null }, "geometry": { "type": "Point", "coordinates": [ -5.784707599675926, 35.771747700396133 ] } },
{ "type": "Feature", "properties": { "OBJECTID": 76, "name": "Trail Atlas", "Line": "L1B-L2-L2A-L26" }, "geometry": { "type": "Point", "coordinates": [ -5.83814840032835, 35.763026999696308 ] } },
{ "type": "Feature", "properties": { "OBJECTID": 77, "name": "Kitea", "Line": "LI2-LI8-L9A-LI10-LI11-L19" }, "geometry": { "type": "Point", "coordinates": [ -5.896309799957237, 35.724020700095309 ] } },
{ "type": "Feature", "properties": { "OBJECTID": 78, "name": "Kitea", "Line": "LI2-LI8-L9A-LI10-LI11-L19" }, "geometry": { "type": "Point", "coordinates": [ -5.896014700018327, 35.72439930028753 ] } },
{ "type": "Feature", "properties": { "OBJECTID": 79, "name": "Banque Populaire", "Line": "L1-L1B-L3-L12-L14-L27" }, "geometry": { "type": "Point", "coordinates": [ -5.792422100199701, 35.772764699631239 ] } },
{ "type": "Feature", "properties": { "OBJECTID": 80, "name": "Café Elmrabet", "Line": "L1-L1B-L2-L20" }, "geometry": { "type": "Point", "coordinates": [ -5.888240700347978, 35.734021100093742 ] } },
{ "type": "Feature", "properties": { "OBJECTID": 81, "name": "Immeuble Elmrabet", "Line": null }, "geometry": { "type": "Point", "coordinates": [ -5.883081199837477, 35.733931899937261 ] } },
{ "type": "Feature", "properties": { "OBJECTID": 82, "name": "Immeuble Elmrabet", "Line": null }, "geometry": { "type": "Point", "coordinates": [ -5.882364399697224, 35.73389690012192 ] } },
{ "type": "Feature", "properties": { "OBJECTID": 83, "name": "Boukhalef1", "Line": "L1-L2-L20" }, "geometry": { "type": "Point", "coordinates": [ -5.878187699902355, 35.736772399626602 ] } },
{ "type": "Feature", "properties": { "OBJECTID": 84, "name": "Boukhalef1", "Line": "L1-L2-L20" }, "geometry": { "type": "Point", "coordinates": [ -5.878543700131615, 35.736744699608266 ] } },
{ "type": "Feature", "properties": { "OBJECTID": 85, "name": "Boukhalef2", "Line": "L1-L1B-L2" }, "geometry": { "type": "Point", "coordinates": [ -5.880711399911149, 35.734917600067263 ] } },
{ "type": "Feature", "properties": { "OBJECTID": 86, "name": "Mwadafin", "Line": null }, "geometry": { "type": "Point", "coordinates": [ -5.817696000370063, 35.762766799748078 ] } },
{ "type": "Feature", "properties": { "OBJECTID": 87, "name": "Mwadafin", "Line": null }, "geometry": { "type": "Point", "coordinates": [ -5.817506499725141, 35.762638700315847 ] } },
{ "type": "Feature", "properties": { "OBJECTID": 88, "name": "Ben Dibane", "Line": "L1-LI10-LI17-LI2-LI11-LI9" }, "geometry": { "type": "Point", "coordinates": [ -5.826117600047155, 35.759367099811868 ] } },
{ "type": "Feature", "properties": { "OBJECTID": 89, "name": "Ben Dibane", "Line": "L1-LI10-LI17-LI2-LI11-LI9" }, "geometry": { "type": "Point", "coordinates": [ -5.82611080027317, 35.759108099559171 ] } },
{ "type": "Feature", "properties": { "OBJECTID": 90, "name": "Marjane", "Line": "L1-LI2-LI8-L9A-LI9-LI10-LI11-L19-LI17-L20-L22" }, "geometry": { "type": "Point", "coordinates": [ -5.842780600444314, 35.746034100093709 ] } },
{ "type": "Feature", "properties": { "OBJECTID": 91, "name": "Marjane", "Line": "L1-LI2-LI8-L9A-LI9-LI10-LI11-L19-LI17-L20-L22" }, "geometry": { "type": "Point", "coordinates": [ -5.842573900265222, 35.745887700357116 ] } },
{ "type": "Feature", "properties": { "OBJECTID": 92, "name": "Coplexe Hassani", "Line": "L1-LI8-L22-L19-LI17-LI2-LI10-LI11-L20-LI9-L9A" }, "geometry": { "type": "Point", "coordinates": [ -5.855389100026912, 35.73787969978838 ] } },
{ "type": "Feature", "properties": { "OBJECTID": 93, "name": "Coplexe Hassani", "Line": "L1-LI8-L22-L19-LI17-LI2-LI10-LI11-L20-LI9-L9A" }, "geometry": { "type": "Point", "coordinates": [ -5.855279399824383, 35.73764690038422 ] } },
{ "type": "Feature", "properties": { "OBJECTID": 94, "name": "Riad Assalam", "Line": "L1-LI8-L22-L19-LI17-LI2-LI10-LI11-L20-LI9-L9A" }, "geometry": { "type": "Point", "coordinates": [ -5.864242799665419, 35.734921399702898 ] } },
{ "type": "Feature", "properties": { "OBJECTID": 95, "name": "Riad Assalam", "Line": "L1-LI8-L22-L19-LI17-LI2-LI10-LI11-L20-LI9-L9A" }, "geometry": { "type": "Point", "coordinates": [ -5.863656400322554, 35.734857699823067 ] } },
{ "type": "Feature", "properties": { "OBJECTID": 96, "name": "Residence Al Moustakbal", "Line": "L1-LI2-LI8-L9A-LI10-LI11-LI9-L19-L20" }, "geometry": { "type": "Point", "coordinates": [ -5.868315300410757, 35.732996399963952 ] } },
{ "type": "Feature", "properties": { "OBJECTID": 97, "name": "Residence Al Moustakbal", "Line": "L1-LI2-LI8-L9A-LI10-LI11-LI9-L19-L20" }, "geometry": { "type": "Point", "coordinates": [ -5.86848640002728, 35.73315540010168 ] } },
{ "type": "Feature", "properties": { "OBJECTID": 98, "name": "Al Moustakbal", "Line": "L1-LI2-LI8-L9A-LI10-LI11-LI9-L19-L20-L30" }, "geometry": { "type": "Point", "coordinates": [ -5.873185300161424, 35.731678299613861 ] } },
{ "type": "Feature", "properties": { "OBJECTID": 99, "name": "Al Moustakbal", "Line": "L1-LI2-LI8-L9A-LI10-LI11-LI9-L19-L20-L30" }, "geometry": { "type": "Point", "coordinates": [ -5.873076900378578, 35.731414200205222 ] } },
{ "type": "Feature", "properties": { "OBJECTID": 100, "name": "Aswak Assalam", "Line": "L1-L20-L30" }, "geometry": { "type": "Point", "coordinates": [ -5.874970299739516, 35.737776499885626 ] } },
{ "type": "Feature", "properties": { "OBJECTID": 101, "name": "zemmouri 4", "Line": "L1-L20-L30" }, "geometry": { "type": "Point", "coordinates": [ -5.87395979990481, 35.735870400298779 ] } },
{ "type": "Feature", "properties": { "OBJECTID": 102, "name": "Azib Haj Kadour", "Line": "L1-LI2-LI11-LI8-L9A-L19-LI9-LI10-LI17" }, "geometry": { "type": "Point", "coordinates": [ -5.836956199668805, 35.74989269978829 ] } },
{ "type": "Feature", "properties": { "OBJECTID": 103, "name": "Azib Haj Kadour", "Line": "L1-LI2-LI11-LI8-L9A-L19-LI9-LI10-LI17" }, "geometry": { "type": "Point", "coordinates": [ -5.837017400332684, 35.750151700040988 ] } },
{ "type": "Feature", "properties": { "OBJECTID": 104, "name": "Residence Zemouri", "Line": "L1-LI17-LI2-LI11-L9A-L19-LI9-LI8-LI10" }, "geometry": { "type": "Point", "coordinates": [ -5.833514499594457, 35.752068399936775 ] } },
{ "type": "Feature", "properties": { "OBJECTID": 105, "name": "Residence Zemouri", "Line": "L1-LI17-LI2-LI11-L9A-L19-LI9-LI8-LI10" }, "geometry": { "type": "Point", "coordinates": [ -5.833700900276256, 35.752139899636688 ] } },
{ "type": "Feature", "properties": { "OBJECTID": 106, "name": "Charf", "Line": "L2-L8-LI9" }, "geometry": { "type": "Point", "coordinates": [ -5.793432699859181, 35.771980700349104 ] } },
{ "type": "Feature", "properties": { "OBJECTID": 107, "name": "Charf", "Line": "L2-L8-LI9" }, "geometry": { "type": "Point", "coordinates": [ -5.79326229991517, 35.771835500308157 ] } },
{ "type": "Feature", "properties": { "OBJECTID": 108, "name": "Place Mozart", "Line": "L2-L16-L8-L13-LI13-LI24-LI9-LI4" }, "geometry": { "type": "Point", "coordinates": [ -5.796024099932197, 35.771691999985876 ] } },
{ "type": "Feature", "properties": { "OBJECTID": 109, "name": "Riad Tétouan رياض تطوان", "Line": "L2-L8-LI9-L13-L16-L18" }, "geometry": { "type": "Point", "coordinates": [ -5.802208400397319, 35.770400800156835 ] } },
{ "type": "Feature", "properties": { "OBJECTID": 110, "name": "Riad Tétouan رياض تطوان", "Line": "L2-L8-LI9-L13-L16-L18" }, "geometry": { "type": "Point", "coordinates": [ -5.802178200263711, 35.77019760013917 ] } },
{ "type": "Feature", "properties": { "OBJECTID": 111, "name": "Arrondisment", "Line": "2" }, "geometry": { "type": "Point", "coordinates": [ -5.828833799939844, 35.775546399846519 ] } },
{ "type": "Feature", "properties": { "OBJECTID": 112, "name": "Abre Val Fleuri", "Line": "2" }, "geometry": { "type": "Point", "coordinates": [ -5.831396400123708, 35.770581400211483 ] } },
{ "type": "Feature", "properties": { "OBJECTID": 113, "name": "Traiteur Rahal", "Line": "2" }, "geometry": { "type": "Point", "coordinates": [ -5.832769399588074, 35.768494099822874 ] } },
{ "type": "Feature", "properties": { "OBJECTID": 114, "name": "Poste De Police", "Line": "L1B-L2-L26" }, "geometry": { "type": "Point", "coordinates": [ -5.83478179994006, 35.7658125004466 ] } },
{ "type": "Feature", "properties": { "OBJECTID": 115, "name": "Trail Atlas", "Line": "L1B-L2-L2A-L26" }, "geometry": { "type": "Point", "coordinates": [ -5.83828200001426, 35.763170599843363 ] } },
{ "type": "Feature", "properties": { "OBJECTID": 116, "name": "Station Afriquia", "Line": "L1B-L2-L2A-L26" }, "geometry": { "type": "Point", "coordinates": [ -5.840430299618561, 35.761277900154994 ] } },
{ "type": "Feature", "properties": { "OBJECTID": 117, "name": "Prison Tanger", "Line": "L1B-2-2A-L26" }, "geometry": { "type": "Point", "coordinates": [ -5.843249200290302, 35.758989700214556 ] } },
{ "type": "Feature", "properties": { "OBJECTID": 118, "name": "Prison Tanger", "Line": "L1B-2-2A-L26" }, "geometry": { "type": "Point", "coordinates": [ -5.843357199874845, 35.759131900117154 ] } },
{ "type": "Feature", "properties": { "OBJECTID": 119, "name": "E.N.C.G.", "Line": "L1B-L2-L2A-L21-L26" }, "geometry": { "type": "Point", "coordinates": [ -5.846509400088678, 35.757135100304708 ] } },
{ "type": "Feature", "properties": { "OBJECTID": 120, "name": "E.N.C.G.", "Line": "L1B-L2-L2A-L21-L26" }, "geometry": { "type": "Point", "coordinates": [ -5.846637700069778, 35.757307299792103 ] } },
{ "type": "Feature", "properties": { "OBJECTID": 121, "name": "Mesnana", "Line": "L1B-L2-L2A-L21-L26" }, "geometry": { "type": "Point", "coordinates": [ -5.851780000146846, 35.75276870021537 ] } },
{ "type": "Feature", "properties": { "OBJECTID": 122, "name": "Maison de Press", "Line": "L1B-L2-L2A-L21-L26" }, "geometry": { "type": "Point", "coordinates": [ -5.857555399561988, 35.748791999751063 ] } },
{ "type": "Feature", "properties": { "OBJECTID": 123, "name": "Maison de Press", "Line": "L1B-L2-L2A-L21-L26" }, "geometry": { "type": "Point", "coordinates": [ -5.857413900231279, 35.749186099758731 ] } },
{ "type": "Feature", "properties": { "OBJECTID": 124, "name": "Stade Ibn Battuta", "Line": "L1B-L2-L2A-L21-L26" }, "geometry": { "type": "Point", "coordinates": [ -5.861648900376395, 35.746063900029014 ] } },
{ "type": "Feature", "properties": { "OBJECTID": 125, "name": "Stade Ibn Battuta", "Line": "L1B-L2-L2A-L21-L26" }, "geometry": { "type": "Point", "coordinates": [ -5.861387900031502, 35.745954199826485 ] } },
{ "type": "Feature", "properties": { "OBJECTID": 126, "name": "Iberia إيبريا", "Line": "L3-L4B-L6-L7-L9A-L10-L11-L12" }, "geometry": { "type": "Point", "coordinates": [ -5.822742099967911, 35.784116500076493 ] } },
{ "type": "Feature", "properties": { "OBJECTID": 127, "name": "El Bir", "Line": "L1B-L2-L2A-L21-L26" }, "geometry": { "type": "Point", "coordinates": [ -5.865606299590979, 35.743214999772476 ] } },
{ "type": "Feature", "properties": { "OBJECTID": 128, "name": "El Bir", "Line": "L1B-L2-L2A-L21-L26" }, "geometry": { "type": "Point", "coordinates": [ -5.865888999677566, 35.743314200390103 ] } },
{ "type": "Feature", "properties": { "OBJECTID": 129, "name": "Aswak Assalam", "Line": "L1-L1B-L2-L2A-L21-L26" }, "geometry": { "type": "Point", "coordinates": [ -5.872981199922378, 35.739228399571061 ] } },
{ "type": "Feature", "properties": { "OBJECTID": 130, "name": "Café Elmrabet", "Line": "L1-L1B-L2-L20" }, "geometry": { "type": "Point", "coordinates": [ -5.888136700048619, 35.73419019961807 ] } },
{ "type": "Feature", "properties": { "OBJECTID": 131, "name": "Castilla Bvd. Mly. Soulayman", "Line": "L1B-L3-L7-L11-L12-L27" }, "geometry": { "type": "Point", "coordinates": [ -5.814258299580786, 35.766539099599811 ] } },
{ "type": "Feature", "properties": { "OBJECTID": 132, "name": "Castilla Bvd. Mly. Soulayman", "Line": "L1B-L3-L7-L11-L12-L27" }, "geometry": { "type": "Point", "coordinates": [ -5.814050100231896, 35.766681800424806 ] } },
{ "type": "Feature", "properties": { "OBJECTID": 133, "name": "Mosquee Mohamed V", "Line": "L5;L17" }, "geometry": { "type": "Point", "coordinates": [ -5.821219599904566, 35.781320999764375 ] } },
{ "type": "Feature", "properties": { "OBJECTID": 134, "name": "Mosquee Mohamed V", "Line": null }, "geometry": { "type": "Point", "coordinates": [ -5.820028699664704, 35.781603500201413 ] } },
{ "type": "Feature", "properties": { "OBJECTID": 135, "name": "Mosquee Mohamed V", "Line": "L5" }, "geometry": { "type": "Point", "coordinates": [ -5.820038299927546, 35.781365900216201 ] } },
{ "type": "Feature", "properties": { "OBJECTID": 136, "name": "Cimetière Chrétien", "Line": "L4-L4B-L21" }, "geometry": { "type": "Point", "coordinates": [ -5.842956700291438, 35.780539600422287 ] } },
{ "type": "Feature", "properties": { "OBJECTID": 137, "name": "Palais Royal 1", "Line": null }, "geometry": { "type": "Point", "coordinates": [ -5.84851060028393, 35.791213599827813 ] } },
{ "type": "Feature", "properties": { "OBJECTID": 138, "name": "Palais Royal 2", "Line": null }, "geometry": { "type": "Point", "coordinates": [ -5.851880399560741, 35.789416800245192 ] } },
{ "type": "Feature", "properties": { "OBJECTID": 139, "name": "Hopital Italien", "Line": "L6-L14" }, "geometry": { "type": "Point", "coordinates": [ -5.8213591000424, 35.784275600038939 ] } },
{ "type": "Feature", "properties": { "OBJECTID": 140, "name": "Ecole Bir Chifa", "Line": null }, "geometry": { "type": "Point", "coordinates": [ -5.818174900151462, 35.743657799867606 ] } },
{ "type": "Feature", "properties": { "OBJECTID": 141, "name": "Masjid Bani yussef", "Line": null }, "geometry": { "type": "Point", "coordinates": [ -5.820208900420369, 35.74320529968486 ] } },
{ "type": "Feature", "properties": { "OBJECTID": 142, "name": "Souika", "Line": null }, "geometry": { "type": "Point", "coordinates": [ -5.82432600034457, 35.743002999888574 ] } },
{ "type": "Feature", "properties": { "OBJECTID": 143, "name": "AttijariWafa Bank", "Line": null }, "geometry": { "type": "Point", "coordinates": [ -5.833046100297224, 35.74477570033838 ] } },
{ "type": "Feature", "properties": { "OBJECTID": 144, "name": "AttijariWafa Bank", "Line": null }, "geometry": { "type": "Point", "coordinates": [ -5.833256299738423, 35.744620700385042 ] } },
{ "type": "Feature", "properties": { "OBJECTID": 145, "name": "Hotel Ahlan", "Line": "L7-L20-L22" }, "geometry": { "type": "Point", "coordinates": [ -5.839910899768142, 35.747208299923159 ] } },
{ "type": "Feature", "properties": { "OBJECTID": 146, "name": "Hotel Ahlan", "Line": "L7-L20-L22" }, "geometry": { "type": "Point", "coordinates": [ -5.840192699633349, 35.747125600066454 ] } },
{ "type": "Feature", "properties": { "OBJECTID": 147, "name": "Bir Chifa", "Line": null }, "geometry": { "type": "Point", "coordinates": [ -5.82773280042835, 35.74301920027591 ] } },
{ "type": "Feature", "properties": { "OBJECTID": 148, "name": "Masjid Bani yussef", "Line": null }, "geometry": { "type": "Point", "coordinates": [ -5.820129000153202, 35.743136999772787 ] } },
{ "type": "Feature", "properties": { "OBJECTID": 149, "name": "Ecole Bir Chifa", "Line": null }, "geometry": { "type": "Point", "coordinates": [ -5.818075300234852, 35.743563399831089 ] } },
{ "type": "Feature", "properties": { "OBJECTID": 150, "name": "Ain Hiyani", "Line": "L4B-L4-L9A-L10-L11" }, "geometry": { "type": "Point", "coordinates": [ -5.82832160006177, 35.785526500347771 ] } },
{ "type": "Feature", "properties": { "OBJECTID": 151, "name": "Bmce", "Line": "L4B-L4-L9A-L11-L12" }, "geometry": { "type": "Point", "coordinates": [ -5.824144900266901, 35.784989800239146 ] } },
{ "type": "Feature", "properties": { "OBJECTID": 152, "name": "Riad Tétouan", "Line": "L10-L18" }, "geometry": { "type": "Point", "coordinates": [ -5.802490999759812, 35.769231599658667 ] } },
{ "type": "Feature", "properties": { "OBJECTID": 153, "name": "Riad Tétouan", "Line": "L10-L18" }, "geometry": { "type": "Point", "coordinates": [ -5.802269100138801, 35.769409499948495 ] } },
{ "type": "Feature", "properties": { "OBJECTID": 154, "name": "Entree Mghoga", "Line": "LI4-LI7-L10-L13-LI13-LI16-L23-LI24" }, "geometry": { "type": "Point", "coordinates": [ -5.786783600083027, 35.748874999981297 ] } },
{ "type": "Feature", "properties": { "OBJECTID": 155, "name": "Police Mghoga", "Line": "LI4-LI7-L10-LI13-L13-LI16-L23-LI24" }, "geometry": { "type": "Point", "coordinates": [ -5.779358200120782, 35.743926500207863 ] } },
{ "type": "Feature", "properties": { "OBJECTID": 156, "name": "Police Mghoga", "Line": "LI4-LI7-L10-LI13-L13-LI16-L23-LI24" }, "geometry": { "type": "Point", "coordinates": [ -5.779572899769448, 35.743801300189887 ] } },
{ "type": "Feature", "properties": { "OBJECTID": 157, "name": "Pocargil", "Line": "LI4-LI7-L10-LI13-L13-LI16-L23-LI24" }, "geometry": { "type": "Point", "coordinates": [ -5.7741712001407, 35.740863199776925 ] } },
{ "type": "Feature", "properties": { "OBJECTID": 158, "name": "Entree Lehmam", "Line": "LI4-LI7-L10-LI13-L13-LI16-L23-LI24" }, "geometry": { "type": "Point", "coordinates": [ -5.783428699874548, 35.745657800367269 ] } },
{ "type": "Feature", "properties": { "OBJECTID": 159, "name": "Hrarech1", "Line": null }, "geometry": { "type": "Point", "coordinates": [ -5.753384999717923, 35.777175299600458 ] } },
{ "type": "Feature", "properties": { "OBJECTID": 160, "name": "Hotel Ibis", "Line": "L14-L16-L20" }, "geometry": { "type": "Point", "coordinates": [ -5.782399100238251, 35.77146009990372 ] } },
{ "type": "Feature", "properties": { "OBJECTID": 161, "name": "Nejma", "Line": "LI5-L13-L14" }, "geometry": { "type": "Point", "coordinates": [ -5.799990399737112, 35.775194700175348 ] } },
{ "type": "Feature", "properties": { "OBJECTID": 162, "name": "Nejma", "Line": "LI5-L13-L14" }, "geometry": { "type": "Point", "coordinates": [ -5.799729900314617, 35.775280300345628 ] } },
{ "type": "Feature", "properties": { "OBJECTID": 163, "name": "Hotel Rembrand", "Line": "L14-L18" }, "geometry": { "type": "Point", "coordinates": [ -5.808722799717373, 35.779661899876828 ] } },
{ "type": "Feature", "properties": { "OBJECTID": 164, "name": "Dchar M'nar", "Line": null }, "geometry": { "type": "Point", "coordinates": [ -5.73034610009239, 35.80802500005376 ] } },
{ "type": "Feature", "properties": { "OBJECTID": 165, "name": "Entree M'nar", "Line": null }, "geometry": { "type": "Point", "coordinates": [ -5.73717269996007, 35.809798900199155 ] } },
{ "type": "Feature", "properties": { "OBJECTID": 166, "name": "M'Nar Park", "Line": null }, "geometry": { "type": "Point", "coordinates": [ -5.739687199904324, 35.809033300146723 ] } },
{ "type": "Feature", "properties": { "OBJECTID": 167, "name": "Cap Tingis", "Line": null }, "geometry": { "type": "Point", "coordinates": [ -5.744052199749149, 35.802810899903136 ] } },
{ "type": "Feature", "properties": { "OBJECTID": 168, "name": "Cap Tingis", "Line": null }, "geometry": { "type": "Point", "coordinates": [ -5.74378369995776, 35.802699199608412 ] } },
{ "type": "Feature", "properties": { "OBJECTID": 169, "name": "Force Auxilieres", "Line": null }, "geometry": { "type": "Point", "coordinates": [ -5.746669799771382, 35.796608399857803 ] } },
{ "type": "Feature", "properties": { "OBJECTID": 170, "name": "Mrissate", "Line": null }, "geometry": { "type": "Point", "coordinates": [ -5.751377599596481, 35.79252860021478 ] } },
{ "type": "Feature", "properties": { "OBJECTID": 171, "name": "R.Point Gzenaya", "Line": "LI2-LI8-LI10-LI11-L19" }, "geometry": { "type": "Point", "coordinates": [ -5.908866000365549, 35.706416599646388 ] } },
{ "type": "Feature", "properties": { "OBJECTID": 172, "name": "R.Point Gzenaya", "Line": "LI2-LI8-LI10-LI11-L19" }, "geometry": { "type": "Point", "coordinates": [ -5.90925560016575, 35.706635900226672 ] } },
{ "type": "Feature", "properties": { "OBJECTID": 173, "name": "La Zone Franche", "Line": null }, "geometry": { "type": "Point", "coordinates": [ -5.904211899959193, 35.718066199795317 ] } },
{ "type": "Feature", "properties": { "OBJECTID": 174, "name": "Doha", "Line": "LI2-LI8-L9A-LI10-LI11-L19" }, "geometry": { "type": "Point", "coordinates": [ -5.880537800179297, 35.729365200143945 ] } },
{ "type": "Feature", "properties": { "OBJECTID": 175, "name": "Doha", "Line": "LI2-LI8-L9A-LI10-LI11-L19" }, "geometry": { "type": "Point", "coordinates": [ -5.880793900118363, 35.728993499550427 ] } },
{ "type": "Feature", "properties": { "OBJECTID": 176, "name": "City Club", "Line": "LI2-LI8-LI9-LI10-LI11-LI17-L19-L20-L22" }, "geometry": { "type": "Point", "coordinates": [ -5.850891200168689, 35.739044200429532 ] } },
{ "type": "Feature", "properties": { "OBJECTID": 177, "name": "City Club", "Line": "LI2-LI8-LI9-LI10-LI11-LI17-L19-L20-L22" }, "geometry": { "type": "Point", "coordinates": [ -5.850718700307709, 35.738825800070686 ] } },
{ "type": "Feature", "properties": { "OBJECTID": 178, "name": "Poste De Police", "Line": "L1B-L2-L26" }, "geometry": { "type": "Point", "coordinates": [ -5.834690800240196, 35.765646099787716 ] } },
{ "type": "Feature", "properties": { "OBJECTID": 179, "name": "Ecole Al Quds", "Line": null }, "geometry": { "type": "Point", "coordinates": [ -5.828933499681227, 35.764520100022651 ] } },
{ "type": "Feature", "properties": { "OBJECTID": 180, "name": "Ecole Fatima Ezzahrae", "Line": null }, "geometry": { "type": "Point", "coordinates": [ -5.831387000409677, 35.763070800277262 ] } },
{ "type": "Feature", "properties": { "OBJECTID": 181, "name": "Rue Ibn Ardoune", "Line": null }, "geometry": { "type": "Point", "coordinates": [ -5.832266399774483, 35.761716100217882 ] } },
{ "type": "Feature", "properties": { "OBJECTID": 182, "name": "Centrale Laiterie", "Line": null }, "geometry": { "type": "Point", "coordinates": [ -5.82982400027737, 35.759238600181277 ] } },
{ "type": "Feature", "properties": { "OBJECTID": 183, "name": "Centrale Laiterie", "Line": null }, "geometry": { "type": "Point", "coordinates": [ -5.829599900015353, 35.759390699820983 ] } },
{ "type": "Feature", "properties": { "OBJECTID": 184, "name": "R.Point Gzenaya", "Line": null }, "geometry": { "type": "Point", "coordinates": [ -5.908516999559822, 35.705760400322276 ] } },
{ "type": "Feature", "properties": { "OBJECTID": 185, "name": "Hawmat Chok Chantara", "Line": "L20-L22-L30" }, "geometry": { "type": "Point", "coordinates": [ -5.783675400099582, 35.759795199588837 ] } },
{ "type": "Feature", "properties": { "OBJECTID": 186, "name": "Jardin Benkirane", "Line": "L20-L22-L30" }, "geometry": { "type": "Point", "coordinates": [ -5.789072899894393, 35.755538999725104 ] } },
{ "type": "Feature", "properties": { "OBJECTID": 187, "name": "CTM", "Line": "L20-L22-L30" }, "geometry": { "type": "Point", "coordinates": [ -5.790997000311279, 35.751398000317522 ] } },
{ "type": "Feature", "properties": { "OBJECTID": 188, "name": "Pharmacie Mernissi", "Line": "L20-L22-L30" }, "geometry": { "type": "Point", "coordinates": [ -5.794123499699708, 35.749838500346584 ] } },
{ "type": "Feature", "properties": { "OBJECTID": 189, "name": "Al Quds", "Line": null }, "geometry": { "type": "Point", "coordinates": [ -5.799537299706572, 35.7430768998791 ] } },
{ "type": "Feature", "properties": { "OBJECTID": 190, "name": "R. Point Hay Salam", "Line": null }, "geometry": { "type": "Point", "coordinates": [ -5.806499100053372, 35.741522400138706 ] } },
{ "type": "Feature", "properties": { "OBJECTID": 191, "name": "Jardin Gourziana", "Line": null }, "geometry": { "type": "Point", "coordinates": [ -5.812608999605573, 35.741623699773982 ] } },
{ "type": "Feature", "properties": { "OBJECTID": 192, "name": "Gourziana", "Line": null }, "geometry": { "type": "Point", "coordinates": [ -5.812785200176791, 35.742325000098731 ] } },
{ "type": "Feature", "properties": { "OBJECTID": 193, "name": "Cimetière Chrétien", "Line": "L4-L4B-L21" }, "geometry": { "type": "Point", "coordinates": [ -5.842744900057028, 35.780522399988797 ] } },
{ "type": "Feature", "properties": { "OBJECTID": 194, "name": "Entree Irfane", "Line": null }, "geometry": { "type": "Point", "coordinates": [ -5.878763599660374, 35.737356100103966 ] } },
{ "type": "Feature", "properties": { "OBJECTID": 195, "name": "Al Irfane", "Line": null }, "geometry": { "type": "Point", "coordinates": [ -5.883199000233617, 35.737415000302065 ] } },
{ "type": "Feature", "properties": { "OBJECTID": 196, "name": "Pharmacie Cap Spartel", "Line": null }, "geometry": { "type": "Point", "coordinates": [ -5.887667700004329, 35.737239500302735 ] } },
{ "type": "Feature", "properties": { "OBJECTID": 197, "name": "Pharmacie Cap Spartel", "Line": null }, "geometry": { "type": "Point", "coordinates": [ -5.887610500424216, 35.737398399716426 ] } },
{ "type": "Feature", "properties": { "OBJECTID": 198, "name": "Ahammar", "Line": null }, "geometry": { "type": "Point", "coordinates": [ -5.883235099919887, 35.743788299590392 ] } },
{ "type": "Feature", "properties": { "OBJECTID": 199, "name": "Mghayer", "Line": null }, "geometry": { "type": "Point", "coordinates": [ -5.887216299692454, 35.746447700101328 ] } },
{ "type": "Feature", "properties": { "OBJECTID": 200, "name": "Grottes d'Hercule", "Line": null }, "geometry": { "type": "Point", "coordinates": [ -5.937892499838938, 35.759557999801928 ] } },
{ "type": "Feature", "properties": { "OBJECTID": 201, "name": "Ahlan", "Line": "L7-L20-L20B" }, "geometry": { "type": "Point", "coordinates": [ -5.836958099936339, 35.746133600185544 ] } },
{ "type": "Feature", "properties": { "OBJECTID": 202, "name": "Ahlan", "Line": "L7-L20-L20B" }, "geometry": { "type": "Point", "coordinates": [ -5.836906100236263, 35.745877400421762 ] } },
{ "type": "Feature", "properties": { "OBJECTID": 203, "name": "Castilla CNSS", "Line": null }, "geometry": { "type": "Point", "coordinates": [ -5.814012399752414, 35.767826399968442 ] } },
{ "type": "Feature", "properties": { "OBJECTID": 204, "name": "Mrissate", "Line": null }, "geometry": { "type": "Point", "coordinates": [ -5.751181999749463, 35.792477800210349 ] } },
{ "type": "Feature", "properties": { "OBJECTID": 205, "name": "Sidi Hssain Terminus", "Line": "16" }, "geometry": { "type": "Point", "coordinates": [ -5.841440300329566, 35.68838710008464 ] } },
{ "type": "Feature", "properties": { "OBJECTID": 206, "name": "Entree Sania", "Line": "LI3-LI5-LI12-L14-L16" }, "geometry": { "type": "Point", "coordinates": [ -5.759439699782263, 35.782555099838021 ] } },
{ "type": "Feature", "properties": { "OBJECTID": 207, "name": "Haskouri", "Line": "LI3-LI5-L8-LI12-L14-L16-L20" }, "geometry": { "type": "Point", "coordinates": [ -5.76217729994238, 35.768914499604534 ] } },
{ "type": "Feature", "properties": { "OBJECTID": 208, "name": "Maison des Jeunes", "Line": null }, "geometry": { "type": "Point", "coordinates": [ -5.817559100172275, 35.781896199849768 ] } },
{ "type": "Feature", "properties": { "OBJECTID": 209, "name": "Parc Mediouna", "Line": null }, "geometry": { "type": "Point", "coordinates": [ -5.889821099663948, 35.783507200397025 ] } },
{ "type": "Feature", "properties": { "OBJECTID": 210, "name": "Parc Mediouna", "Line": null }, "geometry": { "type": "Point", "coordinates": [ -5.889907100032588, 35.78354530017549 ] } },
{ "type": "Feature", "properties": { "OBJECTID": 211, "name": "Aswak Assalam", "Line": "L1-L20-L30" }, "geometry": { "type": "Point", "coordinates": [ -5.875761499893258, 35.73843909968474 ] } },
{ "type": "Feature", "properties": { "OBJECTID": 212, "name": "Cemetier Souani", "Line": null }, "geometry": { "type": "Point", "coordinates": [ -5.819248599842979, 35.767239200228971 ] } },
{ "type": "Feature", "properties": { "OBJECTID": 213, "name": "LI11   Casabarata", "Line": null }, "geometry": { "type": "Point", "coordinates": [ -5.824122800326904, 35.766451400411825 ] } },
{ "type": "Feature", "properties": { "OBJECTID": 214, "name": "Adoha Val Flueri", "Line": "L1B-L2-L26" }, "geometry": { "type": "Point", "coordinates": [ -5.829984799958481, 35.766703299617632 ] } },
{ "type": "Feature", "properties": { "OBJECTID": 215, "name": "Adoha Val Flueri", "Line": "L1B-L2-L26" }, "geometry": { "type": "Point", "coordinates": [ -5.829990200387385, 35.766915099852042 ] } },
{ "type": "Feature", "properties": { "OBJECTID": 216, "name": "Zemmori 3", "Line": "L1B-L2-L26" }, "geometry": { "type": "Point", "coordinates": [ -5.869540400069354, 35.740429400096787 ] } },
{ "type": "Feature", "properties": { "OBJECTID": 217, "name": "Zemmori 3", "Line": "L1B-L2-L26" }, "geometry": { "type": "Point", "coordinates": [ -5.869677599741408, 35.740657800017516 ] } },
{ "type": "Feature", "properties": { "OBJECTID": 218, "name": "L17 Consulat d'Espagne", "Line": null }, "geometry": { "type": "Point", "coordinates": [ -5.823936700018635, 35.780364700270752 ] } },
{ "type": "Feature", "properties": { "OBJECTID": 219, "name": "L2 Hopital Mohammed V", "Line": "2" }, "geometry": { "type": "Point", "coordinates": [ -5.827121200283102, 35.777847899860717 ] } },
{ "type": "Feature", "properties": { "OBJECTID": 220, "name": "Pharmacie Camilia", "Line": "2" }, "geometry": { "type": "Point", "coordinates": [ -5.829512100103273, 35.7731235003493 ] } },
{ "type": "Feature", "properties": { "OBJECTID": 221, "name": "Arrondisment", "Line": "2" }, "geometry": { "type": "Point", "coordinates": [ -5.828610099876187, 35.77556110016468 ] } },
{ "type": "Feature", "properties": { "OBJECTID": 222, "name": "Abre Val Fleuri", "Line": "2" }, "geometry": { "type": "Point", "coordinates": [ -5.831297200405402, 35.770508600091887 ] } },
{ "type": "Feature", "properties": { "OBJECTID": 223, "name": "Traiteur Rahal", "Line": "2" }, "geometry": { "type": "Point", "coordinates": [ -5.832579499644169, 35.768477900334858 ] } },
{ "type": "Feature", "properties": { "OBJECTID": 224, "name": "pharmacy", "Line": "2" }, "geometry": { "type": "Point", "coordinates": [ -5.877969000069243, 35.740331900097146 ] } },
{ "type": "Feature", "properties": { "OBJECTID": 225, "name": "Ahammar", "Line": null }, "geometry": { "type": "Point", "coordinates": [ -5.883299600196324, 35.743691099964337 ] } },
{ "type": "Feature", "properties": { "OBJECTID": 226, "name": "Mghayer", "Line": null }, "geometry": { "type": "Point", "coordinates": [ -5.887259399701463, 35.746171500314517 ] } },
{ "type": "Feature", "properties": { "OBJECTID": 227, "name": "Mghayer2", "Line": null }, "geometry": { "type": "Point", "coordinates": [ -5.892701100275531, 35.747996699588043 ] } },
{ "type": "Feature", "properties": { "OBJECTID": 228, "name": "Mghayer2", "Line": null }, "geometry": { "type": "Point", "coordinates": [ -5.892822200284286, 35.747856899976 ] } },
{ "type": "Feature", "properties": { "OBJECTID": 229, "name": "Sed", "Line": null }, "geometry": { "type": "Point", "coordinates": [ -5.898388799603367, 35.750417500067613 ] } },
{ "type": "Feature", "properties": { "OBJECTID": 230, "name": "Sed", "Line": null }, "geometry": { "type": "Point", "coordinates": [ -5.898338999645091, 35.750157599593592 ] } },
{ "type": "Feature", "properties": { "OBJECTID": 231, "name": "Lbarzakh", "Line": null }, "geometry": { "type": "Point", "coordinates": [ -5.909667600279477, 35.754315599785173 ] } },
{ "type": "Feature", "properties": { "OBJECTID": 232, "name": "Lbarzakh", "Line": null }, "geometry": { "type": "Point", "coordinates": [ -5.909930699642018, 35.754671500189659 ] } },
{ "type": "Feature", "properties": { "OBJECTID": 233, "name": "Khandaghour", "Line": null }, "geometry": { "type": "Point", "coordinates": [ -5.904327999737347, 35.753528100341612 ] } },
{ "type": "Feature", "properties": { "OBJECTID": 234, "name": "Khandaghour", "Line": null }, "geometry": { "type": "Point", "coordinates": [ -5.904459200032022, 35.753361699682728 ] } },
{ "type": "Feature", "properties": { "OBJECTID": 235, "name": "Lmers", "Line": null }, "geometry": { "type": "Point", "coordinates": [ -5.917362500079264, 35.755619200365857 ] } },
{ "type": "Feature", "properties": { "OBJECTID": 236, "name": "Lmers", "Line": null }, "geometry": { "type": "Point", "coordinates": [ -5.917145300315326, 35.755856800351125 ] } },
{ "type": "Feature", "properties": { "OBJECTID": 237, "name": "Lmers2", "Line": null }, "geometry": { "type": "Point", "coordinates": [ -5.924112299642843, 35.755565099849548 ] } },
{ "type": "Feature", "properties": { "OBJECTID": 238, "name": "Lmers2", "Line": null }, "geometry": { "type": "Point", "coordinates": [ -5.923999500376567, 35.755870200249603 ] } },
{ "type": "Feature", "properties": { "OBJECTID": 239, "name": "R. Point Jbila", "Line": null }, "geometry": { "type": "Point", "coordinates": [ -5.930221399697814, 35.757071500249594 ] } },
{ "type": "Feature", "properties": { "OBJECTID": 240, "name": "R. Point Jbila", "Line": null }, "geometry": { "type": "Point", "coordinates": [ -5.930232099831471, 35.757371899893315 ] } },
{ "type": "Feature", "properties": { "OBJECTID": 241, "name": "Centre Santé Saïd Noussairi", "Line": "L3-L7-L9A-L11-LI11-L12" }, "geometry": { "type": "Point", "coordinates": [ -5.814257599908274, 35.769953700402993 ] } },
{ "type": "Feature", "properties": { "OBJECTID": 242, "name": "Centre Accuile Iberia", "Line": null }, "geometry": { "type": "Point", "coordinates": [ -5.818136699648903, 35.782220800249775 ] } },
{ "type": "Feature", "properties": { "OBJECTID": 243, "name": "Bmce", "Line": "L4B-L4-L9A-L11-L12" }, "geometry": { "type": "Point", "coordinates": [ -5.82417070001776, 35.784961100174712 ] } },
{ "type": "Feature", "properties": { "OBJECTID": 244, "name": "Ain Hiyani", "Line": "L4B-L4-L9A-L10-L11" }, "geometry": { "type": "Point", "coordinates": [ -5.828347100338362, 35.78546329959164 ] } },
{ "type": "Feature", "properties": { "OBJECTID": 245, "name": "Mosquée Mowahidin", "Line": null }, "geometry": { "type": "Point", "coordinates": [ -5.831093299815905, 35.785515900038831 ] } },
{ "type": "Feature", "properties": { "OBJECTID": 246, "name": "Clinique Iberia", "Line": null }, "geometry": { "type": "Point", "coordinates": [ -5.827671900138057, 35.779945400359964 ] } },
{ "type": "Feature", "properties": { "OBJECTID": 247, "name": "Clinique Iberia", "Line": null }, "geometry": { "type": "Point", "coordinates": [ -5.827689700419285, 35.78007239992138 ] } },
{ "type": "Feature", "properties": { "OBJECTID": 248, "name": "Marstarkhouch", "Line": null }, "geometry": { "type": "Point", "coordinates": [ -5.832181000153014, 35.778494200347097 ] } },
{ "type": "Feature", "properties": { "OBJECTID": 249, "name": "Hawmat Dzairi", "Line": null }, "geometry": { "type": "Point", "coordinates": [ -5.845391100318977, 35.78212890032853 ] } },
{ "type": "Feature", "properties": { "OBJECTID": 250, "name": "Jbel Lkbir", "Line": null }, "geometry": { "type": "Point", "coordinates": [ -5.843772600325224, 35.785075400409426 ] } },
{ "type": "Feature", "properties": { "OBJECTID": 251, "name": "Jbel Lkbir", "Line": null }, "geometry": { "type": "Point", "coordinates": [ -5.84389599990044, 35.785105599643771 ] } },
{ "type": "Feature", "properties": { "OBJECTID": 252, "name": "Mosquée Mokraa", "Line": null }, "geometry": { "type": "Point", "coordinates": [ -5.842720600375344, 35.787962500269202 ] } },
{ "type": "Feature", "properties": { "OBJECTID": 253, "name": "Mosquée Mokraa", "Line": null }, "geometry": { "type": "Point", "coordinates": [ -5.842881300231795, 35.788045200125964 ] } },
{ "type": "Feature", "properties": { "OBJECTID": 254, "name": "Palais Royal 1", "Line": null }, "geometry": { "type": "Point", "coordinates": [ -5.848650700269559, 35.791091300123469 ] } },
{ "type": "Feature", "properties": { "OBJECTID": 255, "name": "Palais Royal 2", "Line": null }, "geometry": { "type": "Point", "coordinates": [ -5.851740099925621, 35.789351100273109 ] } },
{ "type": "Feature", "properties": { "OBJECTID": 256, "name": "Foret Rmilate", "Line": null }, "geometry": { "type": "Point", "coordinates": [ -5.865398700089884, 35.787451900285021 ] } },
{ "type": "Feature", "properties": { "OBJECTID": 257, "name": "Masjid Al-Saud", "Line": null }, "geometry": { "type": "Point", "coordinates": [ -5.871492800352428, 35.787583999901699 ] } },
{ "type": "Feature", "properties": { "OBJECTID": 258, "name": "Masjid Al-Saud", "Line": null }, "geometry": { "type": "Point", "coordinates": [ -5.871607999909202, 35.787754899868787 ] } },
{ "type": "Feature", "properties": { "OBJECTID": 259, "name": "Ksar", "Line": null }, "geometry": { "type": "Point", "coordinates": [ -5.873850900098887, 35.787605400169127 ] } },
{ "type": "Feature", "properties": { "OBJECTID": 260, "name": "Ksar", "Line": null }, "geometry": { "type": "Point", "coordinates": [ -5.873803700080657, 35.787747100048705 ] } },
{ "type": "Feature", "properties": { "OBJECTID": 261, "name": "Donabo Gardens 1", "Line": null }, "geometry": { "type": "Point", "coordinates": [ -5.879724400260841, 35.787780900168457 ] } },
{ "type": "Feature", "properties": { "OBJECTID": 262, "name": "Donabo Gardens 1", "Line": null }, "geometry": { "type": "Point", "coordinates": [ -5.879722300343815, 35.78789210044016 ] } },
{ "type": "Feature", "properties": { "OBJECTID": 263, "name": "Donabo Gardens 2", "Line": null }, "geometry": { "type": "Point", "coordinates": [ -5.88287689994894, 35.787782699711897 ] } },
{ "type": "Feature", "properties": { "OBJECTID": 264, "name": "Donabo Gardens 2", "Line": null }, "geometry": { "type": "Point", "coordinates": [ -5.882987299823981, 35.787877999969794 ] } },
{ "type": "Feature", "properties": { "OBJECTID": 265, "name": "Donabo Gardens 3", "Line": null }, "geometry": { "type": "Point", "coordinates": [ -5.886673100183373, 35.784385400066185 ] } },
{ "type": "Feature", "properties": { "OBJECTID": 266, "name": "Donabo Gardens 3", "Line": null }, "geometry": { "type": "Point", "coordinates": [ -5.886720300201659, 35.784576999728813 ] } },
{ "type": "Feature", "properties": { "OBJECTID": 267, "name": "Mediouna2", "Line": null }, "geometry": { "type": "Point", "coordinates": [ -5.901578999770948, 35.777585099972441 ] } },
{ "type": "Feature", "properties": { "OBJECTID": 268, "name": "Mediouna2", "Line": null }, "geometry": { "type": "Point", "coordinates": [ -5.90162169958171, 35.777703400391658 ] } },
{ "type": "Feature", "properties": { "OBJECTID": 269, "name": "Mediouna1", "Line": null }, "geometry": { "type": "Point", "coordinates": [ -5.896636799748478, 35.78012050016099 ] } },
{ "type": "Feature", "properties": { "OBJECTID": 270, "name": "Mediouna1", "Line": null }, "geometry": { "type": "Point", "coordinates": [ -5.896655699900577, 35.780258400404932 ] } },
{ "type": "Feature", "properties": { "OBJECTID": 271, "name": "Entree Mediouna", "Line": null }, "geometry": { "type": "Point", "coordinates": [ -5.908424200316517, 35.773275099965929 ] } },
{ "type": "Feature", "properties": { "OBJECTID": 272, "name": "Entree Mediouna", "Line": null }, "geometry": { "type": "Point", "coordinates": [ -5.908559399896319, 35.773298199952023 ] } },
{ "type": "Feature", "properties": { "OBJECTID": 273, "name": "Ecole Mediouna", "Line": null }, "geometry": { "type": "Point", "coordinates": [ -5.909997000361216, 35.770472299856806 ] } },
{ "type": "Feature", "properties": { "OBJECTID": 274, "name": "Ecole Mediouna", "Line": null }, "geometry": { "type": "Point", "coordinates": [ -5.90984530002055, 35.770415799949262 ] } },
{ "type": "Feature", "properties": { "OBJECTID": 275, "name": "Moulay Ismail", "Line": null }, "geometry": { "type": "Point", "coordinates": [ -5.806867400310239, 35.767859500415682 ] } },
{ "type": "Feature", "properties": { "OBJECTID": 276, "name": "Moulay Ismail", "Line": null }, "geometry": { "type": "Point", "coordinates": [ -5.806718600283148, 35.767665899761539 ] } },
{ "type": "Feature", "properties": { "OBJECTID": 277, "name": "Souika", "Line": null }, "geometry": { "type": "Point", "coordinates": [ -5.824327299864933, 35.742886699561609 ] } },
{ "type": "Feature", "properties": { "OBJECTID": 278, "name": "Hawma El Oued", "Line": "LI3-LI5-L8-LI12-L14-L16-L20" }, "geometry": { "type": "Point", "coordinates": [ -5.759214499649374, 35.770756099814207 ] } },
{ "type": "Feature", "properties": { "OBJECTID": 279, "name": "Tanja El Balia", "Line": "LI5-L8-LI12-L14-L16-L20" }, "geometry": { "type": "Point", "coordinates": [ -5.768477899835148, 35.77165629959859 ] } },
{ "type": "Feature", "properties": { "OBJECTID": 280, "name": "Ksar Diyafa", "Line": "LI3-L8-LI12-L14-L16" }, "geometry": { "type": "Point", "coordinates": [ -5.775371000071573, 35.77255309994564 ] } },
{ "type": "Feature", "properties": { "OBJECTID": 281, "name": "Hotel Ibis", "Line": "L14-L16-L20" }, "geometry": { "type": "Point", "coordinates": [ -5.782507699670532, 35.771309299784434 ] } },
{ "type": "Feature", "properties": { "OBJECTID": 282, "name": "Castilla CNSS", "Line": null }, "geometry": { "type": "Point", "coordinates": [ -5.813939999831064, 35.767747100448389 ] } },
{ "type": "Feature", "properties": { "OBJECTID": 283, "name": "Castilla Poste", "Line": null }, "geometry": { "type": "Point", "coordinates": [ -5.815459999779137, 35.767417099619479 ] } },
{ "type": "Feature", "properties": { "OBJECTID": 284, "name": "Castilla Poste", "Line": null }, "geometry": { "type": "Point", "coordinates": [ -5.815475999617661, 35.767512200227884 ] } },
{ "type": "Feature", "properties": { "OBJECTID": 285, "name": "Ecole Al Quds", "Line": null }, "geometry": { "type": "Point", "coordinates": [ -5.828824699700078, 35.764444199939931 ] } },
{ "type": "Feature", "properties": { "OBJECTID": 286, "name": "Ecole Fatima Ezzahrae", "Line": null }, "geometry": { "type": "Point", "coordinates": [ -5.831271100281015, 35.763047700291168 ] } },
{ "type": "Feature", "properties": { "OBJECTID": 287, "name": "Rue Ibn Ardoune", "Line": null }, "geometry": { "type": "Point", "coordinates": [ -5.832084600024245, 35.761721499747466 ] } },
{ "type": "Feature", "properties": { "OBJECTID": 288, "name": "Terminus Dradeb", "Line": "L9A-L10" }, "geometry": { "type": "Point", "coordinates": [ -5.83473579961742, 35.785716299567639 ] } },
{ "type": "Feature", "properties": { "OBJECTID": 289, "name": "Terminus Dradeb", "Line": "L9A-L10" }, "geometry": { "type": "Point", "coordinates": [ -5.834926800331516, 35.78562429982162 ] } },
{ "type": "Feature", "properties": { "OBJECTID": 290, "name": "La Zone Franche", "Line": null }, "geometry": { "type": "Point", "coordinates": [ -5.904017900006011, 35.718038499776981 ] } },
{ "type": "Feature", "properties": { "OBJECTID": 291, "name": "Gzenaya Atlas", "Line": null }, "geometry": { "type": "Point", "coordinates": [ -5.905042600135857, 35.710567999713476 ] } },
{ "type": "Feature", "properties": { "OBJECTID": 292, "name": "Gzenaya Atlas", "Line": null }, "geometry": { "type": "Point", "coordinates": [ -5.905224399886094, 35.71075030038611 ] } },
{ "type": "Feature", "properties": { "OBJECTID": 293, "name": "R.Point Gzenaya", "Line": null }, "geometry": { "type": "Point", "coordinates": [ -5.908660599706877, 35.705727899722831 ] } },
{ "type": "Feature", "properties": { "OBJECTID": 294, "name": "Plaza Toros بلاصة توروس", "Line": null }, "geometry": { "type": "Point", "coordinates": [ -5.797055599836028, 35.763868900029763 ] } },
{ "type": "Feature", "properties": { "OBJECTID": 295, "name": "Hawma Chok1", "Line": null }, "geometry": { "type": "Point", "coordinates": [ -5.794801500388871, 35.761464200112812 ] } },
{ "type": "Feature", "properties": { "OBJECTID": 296, "name": "Hawma Chok1", "Line": null }, "geometry": { "type": "Point", "coordinates": [ -5.794950400240737, 35.76117770039059 ] } },
{ "type": "Feature", "properties": { "OBJECTID": 297, "name": "Entree Mghoga", "Line": "LI4-LI7-L10-L13-LI13-LI16-L23-LI24" }, "geometry": { "type": "Point", "coordinates": [ -5.787051300377186, 35.748718300309349 ] } },
{ "type": "Feature", "properties": { "OBJECTID": 298, "name": "Marché Centrale", "Line": null }, "geometry": { "type": "Point", "coordinates": [ -5.798867800308699, 35.749024399856239 ] } },
{ "type": "Feature", "properties": { "OBJECTID": 299, "name": "Police Bni Makada", "Line": "LI1-LI6-LI14-L11-L27-L30" }, "geometry": { "type": "Point", "coordinates": [ -5.798762700138468, 35.747590699751072 ] } },
{ "type": "Feature", "properties": { "OBJECTID": 300, "name": "Parc Villa Harris", "Line": "LI1-LI6-L11-LI14" }, "geometry": { "type": "Point", "coordinates": [ -5.761755400091602, 35.778527999567586 ] } },
{ "type": "Feature", "properties": { "OBJECTID": 301, "name": "Parc Villa Harris", "Line": "LI1-LI6-L11-LI14" }, "geometry": { "type": "Point", "coordinates": [ -5.761965999731046, 35.778624799894658 ] } },
{ "type": "Feature", "properties": { "OBJECTID": 302, "name": "Ras Msallah", "Line": "L6-L18-L14" }, "geometry": { "type": "Point", "coordinates": [ -5.816129500076329, 35.780947299977981 ] } },
{ "type": "Feature", "properties": { "OBJECTID": 303, "name": "Hotel Rembrand", "Line": "L14-L18" }, "geometry": { "type": "Point", "coordinates": [ -5.808677099768317, 35.779793799844015 ] } },
{ "type": "Feature", "properties": { "OBJECTID": 304, "name": "Place des Nations", "Line": "L14-L18" }, "geometry": { "type": "Point", "coordinates": [ -5.803922000100158, 35.776790100183007 ] } },
{ "type": "Feature", "properties": { "OBJECTID": 305, "name": "Sania", "Line": null }, "geometry": { "type": "Point", "coordinates": [ -5.758515300140914, 35.780208600446599 ] } },
{ "type": "Feature", "properties": { "OBJECTID": 306, "name": "École Cherif Moh. Ameziane", "Line": null }, "geometry": { "type": "Point", "coordinates": [ -5.755743700211553, 35.779395699651843 ] } },
{ "type": "Feature", "properties": { "OBJECTID": 307, "name": "École Cherif Moh. Ameziane", "Line": null }, "geometry": { "type": "Point", "coordinates": [ -5.755792900322035, 35.779515400315518 ] } },
{ "type": "Feature", "properties": { "OBJECTID": 308, "name": "Hrarech1", "Line": null }, "geometry": { "type": "Point", "coordinates": [ -5.753406999833146, 35.777021000219065 ] } },
{ "type": "Feature", "properties": { "OBJECTID": 309, "name": "Commune Sania", "Line": null }, "geometry": { "type": "Point", "coordinates": [ -5.749983100039969, 35.775158200290775 ] } },
{ "type": "Feature", "properties": { "OBJECTID": 310, "name": "Commune Sania", "Line": null }, "geometry": { "type": "Point", "coordinates": [ -5.75008150026099, 35.775055000388022 ] } },
{ "type": "Feature", "properties": { "OBJECTID": 311, "name": "Hrarech2", "Line": null }, "geometry": { "type": "Point", "coordinates": [ -5.747357800022428, 35.774192400359027 ] } },
{ "type": "Feature", "properties": { "OBJECTID": 312, "name": "Hrarech2", "Line": null }, "geometry": { "type": "Point", "coordinates": [ -5.747457200289489, 35.774349699878826 ] } },
{ "type": "Feature", "properties": { "OBJECTID": 313, "name": "Hrarech3 Terminus", "Line": null }, "geometry": { "type": "Point", "coordinates": [ -5.742177499991612, 35.774066300119728 ] } },
{ "type": "Feature", "properties": { "OBJECTID": 314, "name": "Hrarech3 Terminus", "Line": null }, "geometry": { "type": "Point", "coordinates": [ -5.742176099747155, 35.774188499999354 ] } },
{ "type": "Feature", "properties": { "OBJECTID": 315, "name": "Ghandouri", "Line": null }, "geometry": { "type": "Point", "coordinates": [ -5.754715300270846, 35.787986799950886 ] } },
{ "type": "Feature", "properties": { "OBJECTID": 316, "name": "Force Auxilieres", "Line": null }, "geometry": { "type": "Point", "coordinates": [ -5.746401299979937, 35.796606399765608 ] } },
{ "type": "Feature", "properties": { "OBJECTID": 317, "name": "Entree M'nar", "Line": null }, "geometry": { "type": "Point", "coordinates": [ -5.737097899748221, 35.809955000023308 ] } },
{ "type": "Feature", "properties": { "OBJECTID": 318, "name": "Centre M'nar", "Line": null }, "geometry": { "type": "Point", "coordinates": [ -5.735460700151123, 35.808618000420438 ] } },
{ "type": "Feature", "properties": { "OBJECTID": 319, "name": "Centre M'nar", "Line": null }, "geometry": { "type": "Point", "coordinates": [ -5.735431199690083, 35.808711500235574 ] } },
{ "type": "Feature", "properties": { "OBJECTID": 320, "name": "Dchar M'nar", "Line": null }, "geometry": { "type": "Point", "coordinates": [ -5.730383299649532, 35.807902700349416 ] } },
{ "type": "Feature", "properties": { "OBJECTID": 321, "name": "Dchar M'nar1", "Line": null }, "geometry": { "type": "Point", "coordinates": [ -5.732344399974011, 35.808323299780511 ] } },
{ "type": "Feature", "properties": { "OBJECTID": 322, "name": "Dchar M'nar1", "Line": null }, "geometry": { "type": "Point", "coordinates": [ -5.732420499706222, 35.808477699885998 ] } },
{ "type": "Feature", "properties": { "OBJECTID": 323, "name": "Circo Malabata", "Line": "LI1-LI6-L11-LI14" }, "geometry": { "type": "Point", "coordinates": [ -5.762306000121782, 35.777065600297249 ] } },
{ "type": "Feature", "properties": { "OBJECTID": 324, "name": "Circo Malabata", "Line": "LI1-LI6-L11-LI14" }, "geometry": { "type": "Point", "coordinates": [ -5.762506500374627, 35.777101199960441 ] } },
{ "type": "Feature", "properties": { "OBJECTID": 325, "name": "R. Point Hay Salam", "Line": null }, "geometry": { "type": "Point", "coordinates": [ -5.806534400242356, 35.741668399676939 ] } },
{ "type": "Feature", "properties": { "OBJECTID": 326, "name": "Province Aouama", "Line": "L11-L27-L30" }, "geometry": { "type": "Point", "coordinates": [ -5.799857200249562, 35.743154600404523 ] } },
{ "type": "Feature", "properties": { "OBJECTID": 327, "name": "Pharmacie Mernissi", "Line": "L20-L22-L30" }, "geometry": { "type": "Point", "coordinates": [ -5.794070400128817, 35.749637599895379 ] } },
{ "type": "Feature", "properties": { "OBJECTID": 328, "name": "CTM", "Line": "L20-L22-L30" }, "geometry": { "type": "Point", "coordinates": [ -5.791200599627928, 35.751407200382062 ] } },
{ "type": "Feature", "properties": { "OBJECTID": 329, "name": "Jardin Benkirane", "Line": "L20-L22-L30" }, "geometry": { "type": "Point", "coordinates": [ -5.789024299631649, 35.755410099896267 ] } },
{ "type": "Feature", "properties": { "OBJECTID": 330, "name": "Hawmat Chok Chantara", "Line": "L20-L22-L30" }, "geometry": { "type": "Point", "coordinates": [ -5.783807499716318, 35.759810800128378 ] } },
{ "type": "Feature", "properties": { "OBJECTID": 331, "name": "Mosquee El Fath", "Line": "L20-L22-L30" }, "geometry": { "type": "Point", "coordinates": [ -5.78337250034059, 35.764616099953116 ] } },
{ "type": "Feature", "properties": { "OBJECTID": 332, "name": "Gare Train", "Line": "L20-L22-L30" }, "geometry": { "type": "Point", "coordinates": [ -5.787216999564805, 35.769123400424633 ] } },
{ "type": "Feature", "properties": { "OBJECTID": 333, "name": "Centre Accueille", "Line": "L20-L22-L30" }, "geometry": { "type": "Point", "coordinates": [ -5.790280200171082, 35.771334499687441 ] } },
{ "type": "Feature", "properties": { "OBJECTID": 334, "name": "Centre Accueille", "Line": "L20-L22-L30" }, "geometry": { "type": "Point", "coordinates": [ -5.790096000130234, 35.771391999641139 ] } },
{ "type": "Feature", "properties": { "OBJECTID": 335, "name": "Dar Tounsi", "Line": null }, "geometry": { "type": "Point", "coordinates": [ -5.799705499908839, 35.751505200404722 ] } },
{ "type": "Feature", "properties": { "OBJECTID": 336, "name": "Bouhkalef", "Line": null }, "geometry": { "type": "Point", "coordinates": [ -5.88991229991268, 35.734665500312644 ] } },
{ "type": "Feature", "properties": { "OBJECTID": 337, "name": "Entree Irfane", "Line": null }, "geometry": { "type": "Point", "coordinates": [ -5.878835399733873, 35.737107999634532 ] } },
{ "type": "Feature", "properties": { "OBJECTID": 338, "name": "Al Irfane", "Line": null }, "geometry": { "type": "Point", "coordinates": [ -5.883030100358781, 35.737179699883313 ] } },
{ "type": "Feature", "properties": { "OBJECTID": 339, "name": "pharmacy", "Line": "2" }, "geometry": { "type": "Point", "coordinates": [ -5.878025900175089, 35.74015769961818 ] } },
{ "type": "Feature", "properties": { "OBJECTID": 340, "name": "Cafe Hossein", "Line": null }, "geometry": { "type": "Point", "coordinates": [ -5.934392399589512, 35.7629867001761 ] } },
{ "type": "Feature", "properties": { "OBJECTID": 341, "name": "Cafe Hossein", "Line": null }, "geometry": { "type": "Point", "coordinates": [ -5.934575399934715, 35.762980699899458 ] } },
{ "type": "Feature", "properties": { "OBJECTID": 342, "name": "Plage Achkar", "Line": null }, "geometry": { "type": "Point", "coordinates": [ -5.933609199804664, 35.767926400083354 ] } },
{ "type": "Feature", "properties": { "OBJECTID": 343, "name": "Plage Achkar", "Line": null }, "geometry": { "type": "Point", "coordinates": [ -5.933815300135961, 35.768020499746342 ] } },
{ "type": "Feature", "properties": { "OBJECTID": 344, "name": "Ba Kacem", "Line": null }, "geometry": { "type": "Point", "coordinates": [ -5.931410899693219, 35.773321299938118 ] } },
{ "type": "Feature", "properties": { "OBJECTID": 345, "name": "Ba Kacem", "Line": null }, "geometry": { "type": "Point", "coordinates": [ -5.931430299868396, 35.773509500163357 ] } },
{ "type": "Feature", "properties": { "OBJECTID": 346, "name": "Mediouna Soufla", "Line": null }, "geometry": { "type": "Point", "coordinates": [ -5.917633499985982, 35.769750100187025 ] } },
{ "type": "Feature", "properties": { "OBJECTID": 347, "name": "Mediouna Soufla", "Line": null }, "geometry": { "type": "Point", "coordinates": [ -5.917791699727104, 35.769713299928924 ] } },
{ "type": "Feature", "properties": { "OBJECTID": 348, "name": "Playa Sol", "Line": null }, "geometry": { "type": "Point", "coordinates": [ -5.9279340999787, 35.775367100211554 ] } },
{ "type": "Feature", "properties": { "OBJECTID": 349, "name": "Playa Sol", "Line": null }, "geometry": { "type": "Point", "coordinates": [ -5.928014600093661, 35.775236499764731 ] } },
{ "type": "Feature", "properties": { "OBJECTID": 350, "name": "Gare Ferrovaire", "Line": null }, "geometry": { "type": "Point", "coordinates": [ -5.785354199636572, 35.772249299965267 ] } },
{ "type": "Feature", "properties": { "OBJECTID": 351, "name": "Aeroport Ibn Batouta (Tanger)", "Line": "LI2-LI8-L9A-LI10-LI11-L19" }, "geometry": { "type": "Point", "coordinates": [ -5.910919200260821, 35.726889899849027 ] } },
{ "type": "Feature", "properties": { "OBJECTID": 352, "name": "Aeroport Ibn Batouta (Tanger)", "Line": "LI2-LI8-L9A-LI10-LI11-L19" }, "geometry": { "type": "Point", "coordinates": [ -5.910930199868801, 35.726972400056297 ] } },
{ "type": "Feature", "properties": { "OBJECTID": 353, "name": "Sidi Hssain Terminus", "Line": "16" }, "geometry": { "type": "Point", "coordinates": [ -5.841372799914723, 35.688552700346918 ] } },
{ "type": "Feature", "properties": { "OBJECTID": 354, "name": "Place Medina", "Line": "L6-LI9" }, "geometry": { "type": "Point", "coordinates": [ -5.810689099922001, 35.774960600351449 ] } },
{ "type": "Feature", "properties": { "OBJECTID": 355, "name": "Karaouia", "Line": "L6-LI9" }, "geometry": { "type": "Point", "coordinates": [ -5.899538099903339, 35.70233830007254 ] } },
{ "type": "Feature", "properties": { "OBJECTID": 356, "name": "Karaouia", "Line": "L6-LI9" }, "geometry": { "type": "Point", "coordinates": [ -5.899468200097317, 35.702438499836944 ] } },
{ "type": "Feature", "properties": { "OBJECTID": 357, "name": "Commune Gzenaya", "Line": "L6-LI9" }, "geometry": { "type": "Point", "coordinates": [ -5.90670549965904, 35.707761499793435 ] } },
{ "type": "Feature", "properties": { "OBJECTID": 358, "name": "Commune Gzenaya", "Line": "L6-LI9" }, "geometry": { "type": "Point", "coordinates": [ -5.906663299871354, 35.707840900037581 ] } },
{ "type": "Feature", "properties": { "OBJECTID": 359, "name": "Dar Gzenaya", "Line": "L6-LI9" }, "geometry": { "type": "Point", "coordinates": [ -5.905373000263694, 35.706594300286781 ] } },
{ "type": "Feature", "properties": { "OBJECTID": 360, "name": "Dar Gzenaya", "Line": "L6-LI9" }, "geometry": { "type": "Point", "coordinates": [ -5.905436899793017, 35.706563699954813 ] } },
{ "type": "Feature", "properties": { "OBJECTID": 361, "name": "Baqal Anas", "Line": "L6-LI9" }, "geometry": { "type": "Point", "coordinates": [ -5.894510799733553, 35.701786399622677 ] } },
{ "type": "Feature", "properties": { "OBJECTID": 362, "name": "Baqal Anas", "Line": "L6-LI9" }, "geometry": { "type": "Point", "coordinates": [ -5.894515200116359, 35.701932700433815 ] } },
{ "type": "Feature", "properties": { "OBJECTID": 363, "name": "Frahiyene", "Line": "L6-LI9" }, "geometry": { "type": "Point", "coordinates": [ -5.88724930031492, 35.703049199760812 ] } },
{ "type": "Feature", "properties": { "OBJECTID": 364, "name": "Frahiyene", "Line": "L6-LI9" }, "geometry": { "type": "Point", "coordinates": [ -5.887039400347987, 35.702940299954946 ] } },
{ "type": "Feature", "properties": { "OBJECTID": 365, "name": "Ecole Oumouna Amina", "Line": "L6-LI9" }, "geometry": { "type": "Point", "coordinates": [ -5.890711899734356, 35.701820500116014 ] } },
{ "type": "Feature", "properties": { "OBJECTID": 366, "name": "Ecole Oumouna Amina", "Line": "L6-LI9" }, "geometry": { "type": "Point", "coordinates": [ -5.890834900010589, 35.702027399944598 ] } },
{ "type": "Feature", "properties": { "OBJECTID": 367, "name": "Chouaikhraich", "Line": "L6-LI9" }, "geometry": { "type": "Point", "coordinates": [ -5.883505599803527, 35.704072600370239 ] } },
{ "type": "Feature", "properties": { "OBJECTID": 368, "name": "Chouaikhraich", "Line": "L6-LI9" }, "geometry": { "type": "Point", "coordinates": [ -5.883680199581477, 35.704056300158186 ] } },
{ "type": "Feature", "properties": { "OBJECTID": 369, "name": "Cafe Bruxxelles", "Line": "L6-LI9" }, "geometry": { "type": "Point", "coordinates": [ -5.881395800175994, 35.708001000046181 ] } },
{ "type": "Feature", "properties": { "OBJECTID": 370, "name": "Cafe Bruxxelles", "Line": "L6-LI9" }, "geometry": { "type": "Point", "coordinates": [ -5.881461699797569, 35.708129499676716 ] } },
{ "type": "Feature", "properties": { "OBJECTID": 371, "name": "Souk Badriwen", "Line": "L6-LI9" }, "geometry": { "type": "Point", "coordinates": [ -5.877707300051782, 35.709567899638898 ] } },
{ "type": "Feature", "properties": { "OBJECTID": 372, "name": "Souk Badriwen", "Line": "L6-LI9" }, "geometry": { "type": "Point", "coordinates": [ -5.877803399807021, 35.709694200427066 ] } },
{ "type": "Feature", "properties": { "OBJECTID": 373, "name": "Cafe London", "Line": "L6-LI9" }, "geometry": { "type": "Point", "coordinates": [ -5.874320900189332, 35.710590999874796 ] } },
{ "type": "Feature", "properties": { "OBJECTID": 374, "name": "Cafe London", "Line": "L6-LI9" }, "geometry": { "type": "Point", "coordinates": [ -5.87436119970954, 35.71075999957435 ] } },
{ "type": "Feature", "properties": { "OBJECTID": 375, "name": "Ecole Badriwen", "Line": "L6-LI9" }, "geometry": { "type": "Point", "coordinates": [ -5.871234200298034, 35.709970199665008 ] } },
{ "type": "Feature", "properties": { "OBJECTID": 376, "name": "Ecole Badriwen", "Line": "L6-LI9" }, "geometry": { "type": "Point", "coordinates": [ -5.871072200021956, 35.710155100277689 ] } },
{ "type": "Feature", "properties": { "OBJECTID": 377, "name": "Pharmacie Mohib", "Line": "L6-LI9" }, "geometry": { "type": "Point", "coordinates": [ -5.867808900260513, 35.708773700246127 ] } },
{ "type": "Feature", "properties": { "OBJECTID": 378, "name": "Pharmacie Mohib", "Line": "L6-LI9" }, "geometry": { "type": "Point", "coordinates": [ -5.867654199781441, 35.708911499765975 ] } },
{ "type": "Feature", "properties": { "OBJECTID": 379, "name": "R. Point Badriwen", "Line": "L6-LI9" }, "geometry": { "type": "Point", "coordinates": [ -5.865503400061812, 35.707306299845925 ] } },
{ "type": "Feature", "properties": { "OBJECTID": 380, "name": "R. Point Badriwen", "Line": "L6-LI9" }, "geometry": { "type": "Point", "coordinates": [ -5.865529299637444, 35.707514000071114 ] } },
{ "type": "Feature", "properties": { "OBJECTID": 381, "name": "Fhafeh", "Line": "L6-LI9" }, "geometry": { "type": "Point", "coordinates": [ -5.863770699658005, 35.705935099925 ] } },
{ "type": "Feature", "properties": { "OBJECTID": 382, "name": "Fhafeh", "Line": "L6-LI9" }, "geometry": { "type": "Point", "coordinates": [ -5.863658100041221, 35.705988900067723 ] } },
{ "type": "Feature", "properties": { "OBJECTID": 383, "name": "Bni Said", "Line": "L6-LI9" }, "geometry": { "type": "Point", "coordinates": [ -5.861880400260191, 35.70066730035569 ] } },
{ "type": "Feature", "properties": { "OBJECTID": 384, "name": "Bni Said", "Line": "L6-LI9" }, "geometry": { "type": "Point", "coordinates": [ -5.86205590025952, 35.70060819960878 ] } },
{ "type": "Feature", "properties": { "OBJECTID": 385, "name": "Talaa Fransawi", "Line": "L6-LI9" }, "geometry": { "type": "Point", "coordinates": [ -5.859698500185573, 35.698655400026723 ] } },
{ "type": "Feature", "properties": { "OBJECTID": 386, "name": "Talaa Fransawi", "Line": "L6-LI9" }, "geometry": { "type": "Point", "coordinates": [ -5.859511300006432, 35.698829099583349 ] } },
{ "type": "Feature", "properties": { "OBJECTID": 387, "name": "Benjalaat", "Line": "L6-LI9" }, "geometry": { "type": "Point", "coordinates": [ -5.854050200156564, 35.696226299703994 ] } },
{ "type": "Feature", "properties": { "OBJECTID": 388, "name": null, "Line": "L6-LI9" }, "geometry": { "type": "Point", "coordinates": [ -5.854222299819241, 35.696152399713526 ] } },
{ "type": "Feature", "properties": { "OBJECTID": 389, "name": "Benjalaat 2", "Line": "L6-LI9" }, "geometry": { "type": "Point", "coordinates": [ -5.850735200169311, 35.694793499820207 ] } },
{ "type": "Feature", "properties": { "OBJECTID": 390, "name": "Benjalaat 2", "Line": "L6-LI9" }, "geometry": { "type": "Point", "coordinates": [ -5.850642400026686, 35.695051099828447 ] } },
{ "type": "Feature", "properties": { "OBJECTID": 391, "name": "Pharmacie Ain Assel", "Line": "L6-LI9" }, "geometry": { "type": "Point", "coordinates": [ -5.846605599668635, 35.694795499912459 ] } },
{ "type": "Feature", "properties": { "OBJECTID": 392, "name": null, "Line": "L6-LI9" }, "geometry": { "type": "Point", "coordinates": [ -5.846944500188499, 35.694543199609029 ] } },
{ "type": "Feature", "properties": { "OBJECTID": 393, "name": "Cafe Ain Assel", "Line": "L6-LI9" }, "geometry": { "type": "Point", "coordinates": [ -5.844111900144014, 35.693216800315156 ] } },
{ "type": "Feature", "properties": { "OBJECTID": 394, "name": "Cafe Ain Assel", "Line": "L6-LI9" }, "geometry": { "type": "Point", "coordinates": [ -5.844430000244245, 35.693091799946671 ] } },
{ "type": "Feature", "properties": { "OBJECTID": 395, "name": "Sidi Hssain", "Line": "L6-LI9" }, "geometry": { "type": "Point", "coordinates": [ -5.843613600187439, 35.690960000203916 ] } },
{ "type": "Feature", "properties": { "OBJECTID": 396, "name": "Sidi Hssain", "Line": "L6-LI9" }, "geometry": { "type": "Point", "coordinates": [ -5.84347739966222, 35.691070699553165 ] } }
]
}
