{
"type": "FeatureCollection",
"name": "Tourism-Tanger",
"crs": { "type": "name", "properties": { "name": "urn:ogc:def:crs:OGC:1.3:CRS84" } },
"features": [
{ "type": "Feature", "properties": { "name": "Le Mirage", "TYPE": "Hotel", "tourism": "hotel", "phone": null, "website": null }, "geometry": { "type": "Point", "coordinates": [ -5.9387313, 35.7591065 ] } },
{ "type": "Feature", "properties": { "name": "Grottes d'Hercule", "TYPE": "Cultural Tourism", "tourism": "attraction", "phone": null, "website": null }, "geometry": { "type": "Point", "coordinates": [ -5.9391512, 35.7597136 ] } },
{ "type": "Feature", "properties": { "name": "cape Malabata", "TYPE": "EcoTourism", "tourism": "viewpoint", "phone": null, "website": null }, "geometry": { "type": "Point", "coordinates": [ -5.7494311, 35.8167519 ] } },
{ "type": "Feature", "properties": { "name": "Hôtel Andalucia Golf Tanger", "TYPE": "Hotel", "tourism": "hotel", "phone": null, "website": null }, "geometry": { "type": "Point", "coordinates": [ -5.8476977, 35.7779473 ] } },
{ "type": "Feature", "properties": { "name": "Huza Solazur", "TYPE": "Hotel", "tourism": "hotel", "phone": null, "website": null }, "geometry": { "type": "Point", "coordinates": [ -5.7973131, 35.7767561 ] } },
{ "type": "Feature", "properties": { "name": "Tangier American Legation Institute", "TYPE": "Cultural Tourism", "tourism": "museum", "phone": null, "website": null }, "geometry": { "type": "Point", "coordinates": [ -5.8108843, 35.7838627 ] } },
{ "type": "Feature", "properties": { "name": "Musée de La Fondation Lorin", "TYPE": "Cultural Tourism", "tourism": "museum", "phone": null, "website": null }, "geometry": { "type": "Point", "coordinates": [ -5.8116995, 35.7844741 ] } },
{ "type": "Feature", "properties": { "name": "Dar Nour", "TYPE": "Hotel", "tourism": "guest_house", "phone": "+212-6-62112724", "website": "https:\/\/www.darnour.com\/" }, "geometry": { "type": "Point", "coordinates": [ -5.8141884, 35.7878602 ] } },
{ "type": "Feature", "properties": { "name": "Bab Al Bahr", "TYPE": "EcoTourism", "tourism": "viewpoint", "phone": null, "website": null }, "geometry": { "type": "Point", "coordinates": [ -5.8120212, 35.7889739 ] } },
{ "type": "Feature", "properties": { "name": "Rembrandt", "TYPE": "Hotel", "tourism": "hotel", "phone": "+212 539 33 33 15", "website": null }, "geometry": { "type": "Point", "coordinates": [ -5.8085921, 35.7798047 ] } },
{ "type": "Feature", "properties": { "name": "Cap Spartel", "TYPE": "EcoTourism", "tourism": "viewpoint", "phone": null, "website": null }, "geometry": { "type": "Point", "coordinates": [ -5.9242165, 35.7901603 ] } },
{ "type": "Feature", "properties": { "name": "El Minzah Hotel", "TYPE": "Hotel", "tourism": "hotel", "phone": null, "website": null }, "geometry": { "type": "Point", "coordinates": [ -5.8124092, 35.7818736 ] } },
{ "type": "Feature", "properties": { "name": "Hotel Etoile du Nord", "TYPE": "Hotel", "tourism": "hotel", "phone": null, "website": null }, "geometry": { "type": "Point", "coordinates": [ -5.8158208, 35.7727956 ] } },
{ "type": "Feature", "properties": { "name": "Riad Tanja", "TYPE": "Hotel", "tourism": "guest_house", "phone": null, "website": null }, "geometry": { "type": "Point", "coordinates": [ -5.8109191, 35.7837408 ] } },
{ "type": "Feature", "properties": { "name": "Ramada Encore Hotel", "TYPE": "Hotel", "tourism": "hotel", "phone": null, "website": null }, "geometry": { "type": "Point", "coordinates": [ -5.7791629, 35.7737365 ] } },
{ "type": "Feature", "properties": { "name": "Atlas Hotel", "TYPE": "Hotel", "tourism": "hotel", "phone": null, "website": null }, "geometry": { "type": "Point", "coordinates": [ -5.812096, 35.778715 ] } },
{ "type": "Feature", "properties": { "name": "Gran Teatro Cervantes", "TYPE": "Cultural Tourism", "tourism": "attraction", "phone": null, "website": null }, "geometry": { "type": "Point", "coordinates": [ -5.8107017, 35.7820047 ] } },
{ "type": "Feature", "properties": { "name": "Hotel L'marsa", "TYPE": "Hotel", "tourism": "hotel", "phone": null, "website": null }, "geometry": { "type": "Point", "coordinates": [ -5.8076723, 35.7817169 ] } },
{ "type": "Feature", "properties": { "name": "Pension Hollanda", "TYPE": "Hotel", "tourism": "hotel", "phone": null, "website": null }, "geometry": { "type": "Point", "coordinates": [ -5.8144808, 35.7814362 ] } },
{ "type": "Feature", "properties": { "name": "Pension Safari", "TYPE": "Hotel", "tourism": "hotel", "phone": null, "website": null }, "geometry": { "type": "Point", "coordinates": [ -5.8145883, 35.7803844 ] } },
{ "type": "Feature", "properties": { "name": "Guest House FSTT", "TYPE": "Hotel", "tourism": "guest_house", "phone": null, "website": null }, "geometry": { "type": "Point", "coordinates": [ -5.8934387, 35.7354581 ] } },
{ "type": "Feature", "properties": { "name": "Hotel Royal", "TYPE": "Hotel", "tourism": "hotel", "phone": null, "website": null }, "geometry": { "type": "Point", "coordinates": [ -5.8094375, 35.7825641 ] } },
{ "type": "Feature", "properties": { "name": "Maram", "TYPE": "Hotel", "tourism": "hotel", "phone": null, "website": null }, "geometry": { "type": "Point", "coordinates": [ -5.8102185, 35.7856777 ] } },
{ "type": "Feature", "properties": { "name": null, "TYPE": "EcoTourism", "tourism": "viewpoint", "phone": null, "website": null }, "geometry": { "type": "Point", "coordinates": [ -5.8092635, 35.7862333 ] } },
{ "type": "Feature", "properties": { "name": null, "TYPE": "EcoTourism", "tourism": "viewpoint", "phone": null, "website": null }, "geometry": { "type": "Point", "coordinates": [ -5.8071068, 35.7797829 ] } },
{ "type": "Feature", "properties": { "name": null, "TYPE": "EcoTourism", "tourism": "viewpoint", "phone": null, "website": null }, "geometry": { "type": "Point", "coordinates": [ -5.9237339, 35.7911125 ] } },
{ "type": "Feature", "properties": { "name": "El Djenina", "TYPE": "Hotel", "tourism": "hotel", "phone": "05 39 94 22 44", "website": null }, "geometry": { "type": "Point", "coordinates": [ -5.8058373, 35.7804828 ] } },
{ "type": "Feature", "properties": { "name": null, "TYPE": "Hotel", "tourism": "hotel", "phone": null, "website": null }, "geometry": { "type": "Point", "coordinates": [ -5.9309557, 35.772215 ] } },
{ "type": "Feature", "properties": { "name": null, "TYPE": "Hotel", "tourism": "hotel", "phone": null, "website": null }, "geometry": { "type": "Point", "coordinates": [ -5.9307827, 35.7724268 ] } },
{ "type": "Feature", "properties": { "name": null, "TYPE": "Hotel", "tourism": "hotel", "phone": null, "website": null }, "geometry": { "type": "Point", "coordinates": [ -5.7928032, 35.7622148 ] } },
{ "type": "Feature", "properties": { "name": "Tangerina", "TYPE": "Hotel", "tourism": "hotel", "phone": null, "website": null }, "geometry": { "type": "Point", "coordinates": [ -5.8136671, 35.7889977 ] } },
{ "type": "Feature", "properties": { "name": null, "TYPE": "Hotel", "tourism": "hotel", "phone": null, "website": null }, "geometry": { "type": "Point", "coordinates": [ -5.8361391, 35.7814665 ] } },
{ "type": "Feature", "properties": { "name": null, "TYPE": "Hotel", "tourism": "hotel", "phone": null, "website": null }, "geometry": { "type": "Point", "coordinates": [ -5.8390405, 35.7848114 ] } },
{ "type": "Feature", "properties": { "name": null, "TYPE": "Hotel", "tourism": "hotel", "phone": null, "website": null }, "geometry": { "type": "Point", "coordinates": [ -5.8380144, 35.7821571 ] } },
{ "type": "Feature", "properties": { "name": "Marco Polo", "TYPE": "Hotel", "tourism": "hotel", "phone": "+212 539941124", "website": "http:\/\/www.marco-polo.ma" }, "geometry": { "type": "Point", "coordinates": [ -5.8063425, 35.7809993 ] } },
{ "type": "Feature", "properties": { "name": null, "TYPE": "Hotel", "tourism": "hotel", "phone": null, "website": null }, "geometry": { "type": "Point", "coordinates": [ -5.8023825, 35.7631626 ] } },
{ "type": "Feature", "properties": { "name": "Dar Jameel", "TYPE": "Hotel", "tourism": "guest_house", "phone": "+212539334680", "website": "http:\/\/magicmaroc.com" }, "geometry": { "type": "Point", "coordinates": [ -5.8101049, 35.7873544 ] } },
{ "type": "Feature", "properties": { "name": "Dar Nakhla Naciria", "TYPE": "Hotel", "tourism": "hotel", "phone": null, "website": null }, "geometry": { "type": "Point", "coordinates": [ -5.8115705, 35.7860216 ] } },
{ "type": "Feature", "properties": { "name": null, "TYPE": "Cultural Tourism", "tourism": "attraction", "phone": null, "website": null }, "geometry": { "type": "Point", "coordinates": [ -5.9072527, 35.7779768 ] } },
{ "type": "Feature", "properties": { "name": "Bab Kasbah", "TYPE": "Cultural Tourism", "tourism": "museum", "phone": null, "website": null }, "geometry": { "type": "Point", "coordinates": [ -5.8148827, 35.7886253 ] } },
{ "type": "Feature", "properties": { "name": "Atlas Almohades Tanger City Center", "TYPE": "Hotel", "tourism": "hotel", "phone": null, "website": "http:\/\/almohadescitycenter.com-tanger.com" }, "geometry": { "type": "Point", "coordinates": [ -5.7996655, 35.777514 ] } },
{ "type": "Feature", "properties": { "name": "Hotel Mamora Tanger", "TYPE": "Hotel", "tourism": "hotel", "phone": null, "website": null }, "geometry": { "type": "Point", "coordinates": [ -5.8097062, 35.7853591 ] } },
{ "type": "Feature", "properties": { "name": "Hotel mauritania center tanger", "TYPE": "Hotel", "tourism": "hotel", "phone": null, "website": null }, "geometry": { "type": "Point", "coordinates": [ -5.8104283, 35.7860966 ] } },
{ "type": "Feature", "properties": { "name": null, "TYPE": "Hotel", "tourism": "hotel", "phone": null, "website": null }, "geometry": { "type": "Point", "coordinates": [ -5.7537902, 35.7924958 ] } },
{ "type": "Feature", "properties": { "name": "Hotel Magellan", "TYPE": "Hotel", "tourism": "hotel", "phone": "0539372319", "website": null }, "geometry": { "type": "Point", "coordinates": [ -5.8076782, 35.781027 ] } },
{ "type": "Feature", "properties": { "name": "Dar Medina Tanger", "TYPE": "Hotel", "tourism": "hotel", "phone": null, "website": null }, "geometry": { "type": "Point", "coordinates": [ -5.812604, 35.786641 ] } },
{ "type": "Feature", "properties": { "name": "La Tangerina", "TYPE": "Hotel", "tourism": "hotel", "phone": "+212539947731", "website": "https:\/\/www.latangerina.com\/" }, "geometry": { "type": "Point", "coordinates": [ -5.8136072, 35.7890074 ] } },
{ "type": "Feature", "properties": { "name": "Hôtel Olid", "TYPE": "Hotel", "tourism": "hotel", "phone": null, "website": null }, "geometry": { "type": "Point", "coordinates": [ -5.8093364, 35.7853659 ] } },
{ "type": "Feature", "properties": { "name": "Miramonte swimming pool", "TYPE": "Hotel", "tourism": "hotel", "phone": null, "website": null }, "geometry": { "type": "Point", "coordinates": [ -5.8003341, 35.7600779 ] } },
{ "type": "Feature", "properties": { "name": "Hotel Mauritania", "TYPE": "Hotel", "tourism": "hotel", "phone": null, "website": null }, "geometry": { "type": "Point", "coordinates": [ -5.8107584, 35.7855923 ] } },
{ "type": "Feature", "properties": { "name": "Hotel Nord-Pinus Tanger", "TYPE": "Hotel", "tourism": "hotel", "phone": "+212 661 22 81 40", "website": "http:\/\/nord-pinus-tanger.com\/" }, "geometry": { "type": "Point", "coordinates": [ -5.8134831, 35.788976 ] } },
{ "type": "Feature", "properties": { "name": null, "TYPE": "EcoTourism", "tourism": "viewpoint", "phone": null, "website": null }, "geometry": { "type": "Point", "coordinates": [ -5.8103843, 35.7888789 ] } },
{ "type": "Feature", "properties": { "name": "Sala de Exposiciones Instituto Cervantes", "TYPE": "Cultural Tourism", "tourism": "gallery", "phone": null, "website": "https:\/\/tanger.cervantes.es\/es\/sobre_nosotros_centro_espanol.htm" }, "geometry": { "type": "Point", "coordinates": [ -5.813555, 35.780588 ] } },
{ "type": "Feature", "properties": { "name": "Espace d’art contemporain", "TYPE": "Cultural Tourism", "tourism": "museum", "phone": null, "website": null }, "geometry": { "type": "Point", "coordinates": [ -5.8123164, 35.788483 ] } },
{ "type": "Feature", "properties": { "name": "Ibn Battouta", "TYPE": "Cultural Tourism", "tourism": "attraction", "phone": null, "website": null }, "geometry": { "type": "Point", "coordinates": [ -5.8023177, 35.7773312 ] } },
{ "type": "Feature", "properties": { "name": "Mövenpick Hotel & Casino Malabata", "TYPE": "Hotel", "tourism": "hotel", "phone": "+212539329300", "website": "www.moevenpick-tangier-casino.com" }, "geometry": { "type": "Point", "coordinates": [ -5.7634487, 35.7844235 ] } },
{ "type": "Feature", "properties": { "name": "Mirador", "TYPE": "EcoTourism", "tourism": "viewpoint", "phone": null, "website": null }, "geometry": { "type": "Point", "coordinates": [ -5.8232617, 35.7873112 ] } },
{ "type": "Feature", "properties": { "name": "Viewpoint with huge canon", "TYPE": "EcoTourism", "tourism": "viewpoint", "phone": null, "website": null }, "geometry": { "type": "Point", "coordinates": [ -5.8091542, 35.7886527 ] } },
{ "type": "Feature", "properties": { "name": null, "TYPE": "EcoTourism", "tourism": "viewpoint", "phone": null, "website": null }, "geometry": { "type": "Point", "coordinates": [ -5.8237915, 35.7874215 ] } },
{ "type": "Feature", "properties": { "name": "Casa Barata Market", "TYPE": "Cultural Tourism", "tourism": "attraction", "phone": null, "website": null }, "geometry": { "type": "Point", "coordinates": [ -5.8315164, 35.7494163 ] } },
{ "type": "Feature", "properties": { "name": "La Terrasse des Paresseux", "TYPE": "EcoTourism", "tourism": "viewpoint", "phone": null, "website": null }, "geometry": { "type": "Point", "coordinates": [ -5.8117936, 35.7808623 ] } },
{ "type": "Feature", "properties": { "name": "Place Petit Socco", "TYPE": "Cultural Tourism", "tourism": "attraction", "phone": null, "website": null }, "geometry": { "type": "Point", "coordinates": [ -5.8105922, 35.7854895 ] } },
{ "type": "Feature", "properties": { "name": "Centre Culturel Ibn Khaldoune", "TYPE": "Cultural Tourism", "tourism": "museum", "phone": null, "website": null }, "geometry": { "type": "Point", "coordinates": [ -5.8126395, 35.7826245 ] } },
{ "type": "Feature", "properties": { "name": "Gallérie Delacroix", "TYPE": "Cultural Tourism", "tourism": "museum", "phone": null, "website": null }, "geometry": { "type": "Point", "coordinates": [ -5.8126923, 35.7815566 ] } },
{ "type": "Feature", "properties": { "name": "Musée", "TYPE": "Cultural Tourism", "tourism": "museum", "phone": null, "website": null }, "geometry": { "type": "Point", "coordinates": [ -5.8249149, 35.7913451 ] } },
{ "type": "Feature", "properties": { "name": null, "TYPE": "EcoTourism", "tourism": "viewpoint", "phone": null, "website": null }, "geometry": { "type": "Point", "coordinates": [ -5.8084085, 35.7883978 ] } },
{ "type": "Feature", "properties": { "name": "Slokia", "TYPE": "EcoTourism", "tourism": "viewpoint", "phone": null, "website": null }, "geometry": { "type": "Point", "coordinates": [ -5.9085065, 35.7946576 ] } },
{ "type": "Feature", "properties": { "name": "Charf hiil", "TYPE": "EcoTourism", "tourism": "viewpoint", "phone": null, "website": null }, "geometry": { "type": "Point", "coordinates": [ -5.7894437, 35.7658342 ] } },
{ "type": "Feature", "properties": { "name": "Mnebhi House", "TYPE": "Cultural Tourism", "tourism": "attraction", "phone": null, "website": null }, "geometry": { "type": "Point", "coordinates": [ -5.8173749, 35.7895147 ] } },
{ "type": "Feature", "properties": { "name": "Musée Forbes de Tanger", "TYPE": "Cultural Tourism", "tourism": "museum", "phone": null, "website": null }, "geometry": { "type": "Point", "coordinates": [ -5.8261871, 35.7904584 ] } },
{ "type": "Feature", "properties": { "name": "Cat's House", "TYPE": "Cultural Tourism", "tourism": "attraction", "phone": null, "website": null }, "geometry": { "type": "Point", "coordinates": [ -5.8167985, 35.7904371 ] } },
{ "type": "Feature", "properties": { "name": "Musée des cultures méditerranéennes", "TYPE": "Cultural Tourism", "tourism": "museum", "phone": null, "website": null }, "geometry": { "type": "Point", "coordinates": [ -5.8125405, 35.788326 ] } },
{ "type": "Feature", "properties": { "name": null, "TYPE": "EcoTourism", "tourism": "viewpoint", "phone": null, "website": null }, "geometry": { "type": "Point", "coordinates": [ -5.8663241, 35.7923269 ] } },
{ "type": "Feature", "properties": { "name": "Dar Rif Kebdani", "TYPE": "Hotel", "tourism": "guest_house", "phone": null, "website": null }, "geometry": { "type": "Point", "coordinates": [ -5.8105726, 35.7871368 ] } },
{ "type": "Feature", "properties": { "name": null, "TYPE": "Hotel", "tourism": "hotel", "phone": null, "website": null }, "geometry": { "type": "Point", "coordinates": [ -5.8159011, 35.7890726 ] } },
{ "type": "Feature", "properties": { "name": "Hotel fuentes", "TYPE": "Hotel", "tourism": "hotel", "phone": null, "website": null }, "geometry": { "type": "Point", "coordinates": [ -5.8103791, 35.7854965 ] } },
{ "type": "Feature", "properties": { "name": null, "TYPE": "Hotel", "tourism": "guest_house", "phone": null, "website": null }, "geometry": { "type": "Point", "coordinates": [ -5.8097886, 35.7884801 ] } },
{ "type": "Feature", "properties": { "name": "Dar Gara", "TYPE": "Hotel", "tourism": "guest_house", "phone": "0721576519", "website": null }, "geometry": { "type": "Point", "coordinates": [ -5.8097706, 35.7884754 ] } },
{ "type": "Feature", "properties": { "name": "Dar Gara hostel", "TYPE": "Hotel", "tourism": "hotel", "phone": null, "website": null }, "geometry": { "type": "Point", "coordinates": [ -5.8099227, 35.78848 ] } },
{ "type": "Feature", "properties": { "name": "Appart Hotel Rania", "TYPE": "Hotel", "tourism": "hotel", "phone": "+212 0 5393-41223", "website": "https:\/\/www.raniaapparthotel.com\/" }, "geometry": { "type": "Point", "coordinates": [ -5.8094079, 35.7764457 ] } },
{ "type": "Feature", "properties": { "name": null, "TYPE": "EcoTourism", "tourism": "viewpoint", "phone": null, "website": null }, "geometry": { "type": "Point", "coordinates": [ -5.8219572, 35.791509 ] } },
{ "type": "Feature", "properties": { "name": "Nahda", "TYPE": "Hotel", "tourism": "hotel", "phone": null, "website": null }, "geometry": { "type": "Point", "coordinates": [ -5.8088626, 35.7855013 ] } },
{ "type": "Feature", "properties": { "name": "Miramar", "TYPE": "Hotel", "tourism": "hotel", "phone": null, "website": null }, "geometry": { "type": "Point", "coordinates": [ -5.802589, 35.7791893 ] } },
{ "type": "Feature", "properties": { "name": "Marina Bay", "TYPE": "Hotel", "tourism": "hotel", "phone": null, "website": null }, "geometry": { "type": "Point", "coordinates": [ -5.8033747, 35.7794665 ] } },
{ "type": "Feature", "properties": { "name": "Dar Sharif Tanger", "TYPE": "Hotel", "tourism": "guest_house", "phone": "+212696884163", "website": null }, "geometry": { "type": "Point", "coordinates": [ -5.8128807, 35.7872341 ] } },
{ "type": "Feature", "properties": { "name": "Galerie Cornil", "TYPE": "Cultural Tourism", "tourism": "gallery", "phone": null, "website": null }, "geometry": { "type": "Point", "coordinates": [ -5.814579, 35.7885125 ] } },
{ "type": "Feature", "properties": { "name": "Hôtel Tarik", "TYPE": "Hotel", "tourism": "hotel", "phone": null, "website": "http:\/\/www.umhtarikhotel.com\/" }, "geometry": { "type": "Point", "coordinates": [ -5.7667589, 35.7830238 ] } },
{ "type": "Feature", "properties": { "name": "Villa Harris Museum", "TYPE": "Cultural Tourism", "tourism": "museum", "phone": null, "website": null }, "geometry": { "type": "Point", "coordinates": [ -5.7639325, 35.7827429 ] } },
{ "type": "Feature", "properties": { "name": null, "TYPE": "EcoTourism", "tourism": "viewpoint", "phone": null, "website": null }, "geometry": { "type": "Point", "coordinates": [ -5.8095677, 35.7870863 ] } },
{ "type": "Feature", "properties": { "name": null, "TYPE": "Cultural Tourism", "tourism": "museum", "phone": null, "website": null }, "geometry": { "type": "Point", "coordinates": [ -5.809278, 35.7871133 ] } },
{ "type": "Feature", "properties": { "name": "Marshan Art Gallery", "TYPE": "Cultural Tourism", "tourism": "gallery", "phone": null, "website": null }, "geometry": { "type": "Point", "coordinates": [ -5.8177389, 35.7892924 ] } },
{ "type": "Feature", "properties": { "name": "Lalla Soulja", "TYPE": "Hotel", "tourism": "hotel", "phone": null, "website": null }, "geometry": { "type": "Point", "coordinates": [ -5.8161141, 35.7875441 ] } },
{ "type": "Feature", "properties": { "name": "Riad Sultana", "TYPE": "Hotel", "tourism": "hotel", "phone": null, "website": "https:\/\/www.riadsultana.ma\/" }, "geometry": { "type": "Point", "coordinates": [ -5.8112627, 35.7864842 ] } },
{ "type": "Feature", "properties": { "name": "Villa Adam", "TYPE": "Hotel", "tourism": "guest_house", "phone": null, "website": null }, "geometry": { "type": "Point", "coordinates": [ -5.7761589, 35.774458 ] } },
{ "type": "Feature", "properties": { "name": "Riad Mokhtar", "TYPE": "Hotel", "tourism": "hotel", "phone": null, "website": null }, "geometry": { "type": "Point", "coordinates": [ -5.8159074, 35.7878895 ] } },
{ "type": "Feature", "properties": { "name": "Musee des artistes voyageurs", "TYPE": "Cultural Tourism", "tourism": "museum", "phone": null, "website": null }, "geometry": { "type": "Point", "coordinates": [ -5.8111539, 35.7852836 ] } },
{ "type": "Feature", "properties": { "name": "Kasba Blanca", "TYPE": "Hotel", "tourism": "guest_house", "phone": null, "website": null }, "geometry": { "type": "Point", "coordinates": [ -5.8140388, 35.7879623 ] } },
{ "type": "Feature", "properties": { "name": "Dar chams Tanja", "TYPE": "Hotel", "tourism": "guest_house", "phone": null, "website": null }, "geometry": { "type": "Point", "coordinates": [ -5.8120308, 35.7876581 ] } },
{ "type": "Feature", "properties": { "name": "Kasba Green", "TYPE": "Hotel", "tourism": "guest_house", "phone": null, "website": null }, "geometry": { "type": "Point", "coordinates": [ -5.8138844, 35.7880911 ] } },
{ "type": "Feature", "properties": { "name": "Guest House Laghrib", "TYPE": "Hotel", "tourism": "guest_house", "phone": null, "website": null }, "geometry": { "type": "Point", "coordinates": [ -5.8095753, 35.7877472 ] } },
{ "type": "Feature", "properties": { "name": "Zoco Riad", "TYPE": "Hotel", "tourism": "guest_house", "phone": null, "website": null }, "geometry": { "type": "Point", "coordinates": [ -5.8110632, 35.786763 ] } },
{ "type": "Feature", "properties": { "name": "Photospot", "TYPE": "Cultural Tourism", "tourism": "attraction", "phone": null, "website": null }, "geometry": { "type": "Point", "coordinates": [ -5.9235866, 35.7906624 ] } },
{ "type": "Feature", "properties": { "name": "Terrasse Sweet Sunset", "TYPE": "Cultural Tourism", "tourism": "attraction", "phone": null, "website": null }, "geometry": { "type": "Point", "coordinates": [ -5.92387, 35.7908443 ] } },
{ "type": "Feature", "properties": { "name": "Kasbah Rose", "TYPE": "Hotel", "tourism": "guest_house", "phone": null, "website": null }, "geometry": { "type": "Point", "coordinates": [ -5.8142125, 35.7880195 ] } },
{ "type": "Feature", "properties": { "name": null, "TYPE": "EcoTourism", "tourism": "viewpoint", "phone": null, "website": null }, "geometry": { "type": "Point", "coordinates": [ -5.9272257, 35.7877394 ] } },
{ "type": "Feature", "properties": { "name": "Airport tangier ibn Batouta", "TYPE": "Airoport", "tourism": "transport", "phone": null, "website": null }, "geometry": { "type": "Point", "coordinates": [ -5.917420879850286, 35.730829518036934 ] } },
{ "type": "Feature", "properties": { "name": "Gare Routière de Tanger", "TYPE": "Gare", "tourism": "attraction", "phone": null, "website": null }, "geometry": { "type": "Point", "coordinates": [ -5.860101553781315, 35.728429527535681 ] } },
{ "type": "Feature", "properties": { "name": "Stade Ibn Batouta", "TYPE": "Stade", "tourism": "attraction", "phone": null, "website": null }, "geometry": { "type": "Point", "coordinates": [ -5.85807534639607, 35.741128407606141 ] } },
{ "type": "Feature", "properties": { "name": "Ben Tangier Tour Guide", "TYPE": "Agence Touristique", "tourism": "Sightseeing tour agency", "phone": "0637334819", "website": "www.ben-tangier-tour-guide.com" }, "geometry": { "type": "Point", "coordinates": [ -5.83248420372761, 35.76609627588077 ] } },
{ "type": "Feature", "properties": { "name": "Ben Tangier Tour Guide", "TYPE": "Agence Touristique", "tourism": "Agence de visites touristiques en bus", "phone": "+1 908-917-1806", "website": "rayontours.com" }, "geometry": { "type": "Point", "coordinates": [ -5.816478950833705, 35.771513713873446 ] } },
{ "type": "Feature", "properties": { "name": "Unik Maroc Tours S.A.R.L", "TYPE": "Agence Touristique", "tourism": "Agence de visites touristiques", "phone": "0661-896740", "website": "unikmaroctours.com" }, "geometry": { "type": "Point", "coordinates": [ -5.806639387342329, 35.771200182920012 ] } },
{ "type": "Feature", "properties": { "name": "Gare Tanger Ville", "TYPE": "Gare", "tourism": "transport", "phone": null, "website": null }, "geometry": { "type": "Point", "coordinates": [ -5.786206545076498, 35.77119542471079 ] } },
{ "type": "Feature", "properties": { "name": "Travel Agency Sava", "TYPE": "Agence Touristique", "tourism": "Agence de voyages", "phone": "0661846633", "website": "www.savabooking.com" }, "geometry": { "type": "Point", "coordinates": [ -5.802167880800342, 35.775919696863326 ] } },
{ "type": "Feature", "properties": { "name": "AZ Experience | Travel Agency", "TYPE": "Agence Touristique", "tourism": "Agence de voyages", "phone": "0661-872842", "website": "azexperience.ma" }, "geometry": { "type": "Point", "coordinates": [ -5.802292614440089, 35.776426450688405 ] } },
{ "type": "Feature", "properties": { "name": "SET TRAVEL MOROCCO", "TYPE": "Agence Touristique", "tourism": "Agence de voyages", "phone": "05393-43120", "website": "settravelmorocco.com" }, "geometry": { "type": "Point", "coordinates": [ -5.809280103128348, 35.780674787106761 ] } },
{ "type": "Feature", "properties": { "name": "Alma Travel", "TYPE": "Agence Touristique", "tourism": "Travel agency", "phone": "0531119511", "website": "https:\/\/almatravel.ma\/" }, "geometry": { "type": "Point", "coordinates": [ -5.81553753601013, 35.781137363686021 ] } }
]
}
